{
"type": "FeatureCollection",
"name": "Baglung_Municipality_Boundary",
"crs": { "type": "name", "properties": { "name": "urn:ogc:def:crs:OGC:1.3:CRS84" } },
"xy_coordinate_resolution": 1e-06,
"features": [
{ "type": "Feature", "properties": { "PROVINCE": 4, "DISTRICT": "BAGLUNG", "PALIKA": "Baglung", "TYPE": "Nagarpalika", "WARD": 12 }, "geometry": { "type": "MultiPolygon", "coordinates": [ [ [ [ 83.603793, 28.216186 ], [ 83.603415, 28.215892 ], [ 83.602713, 28.215707 ], [ 83.602327, 28.215681 ], [ 83.60169, 28.215476 ], [ 83.60131, 28.215259 ], [ 83.600933, 28.214908 ], [ 83.600646, 28.214368 ], [ 83.600574, 28.213831 ], [ 83.600667, 28.213526 ], [ 83.600756, 28.213376 ], [ 83.600851, 28.212995 ], [ 83.600775, 28.212611 ], [ 83.600401, 28.212125 ], [ 83.599851, 28.210986 ], [ 83.599812, 28.210833 ], [ 83.599772, 28.210699 ], [ 83.599635, 28.21018 ], [ 83.599557, 28.209873 ], [ 83.599506, 28.209336 ], [ 83.599324, 28.208873 ], [ 83.599012, 28.208522 ], [ 83.598897, 28.208445 ], [ 83.598569, 28.208228 ], [ 83.598444, 28.208092 ], [ 83.598255, 28.207956 ], [ 83.59805, 28.20757 ], [ 83.597967, 28.20749 ], [ 83.597805, 28.207106 ], [ 83.597619, 28.206835 ], [ 83.597578, 28.206797 ], [ 83.597322, 28.206735 ], [ 83.597194, 28.206732 ], [ 83.596482, 28.206908 ], [ 83.596222, 28.207057 ], [ 83.596029, 28.207054 ], [ 83.595902, 28.206993 ], [ 83.595609, 28.206701 ], [ 83.595525, 28.206662 ], [ 83.595266, 28.206713 ], [ 83.59507, 28.206843 ], [ 83.59496, 28.206976 ], [ 83.594631, 28.207255 ], [ 83.594145, 28.207856 ], [ 83.593943, 28.208196 ], [ 83.593789, 28.208365 ], [ 83.593694, 28.208446 ], [ 83.593592, 28.208533 ], [ 83.593115, 28.208791 ], [ 83.592787, 28.209034 ], [ 83.592657, 28.209108 ], [ 83.592398, 28.209179 ], [ 83.592076, 28.20923 ], [ 83.590534, 28.209201 ], [ 83.589638, 28.209049 ], [ 83.589192, 28.208888 ], [ 83.589086, 28.208867 ], [ 83.588729, 28.208591 ], [ 83.588514, 28.208446 ], [ 83.588413, 28.208376 ], [ 83.588121, 28.208063 ], [ 83.587973, 28.207966 ], [ 83.587537, 28.207423 ], [ 83.587096, 28.207111 ], [ 83.586471, 28.206409 ], [ 83.585947, 28.205961 ], [ 83.585777, 28.205882 ], [ 83.585589, 28.205707 ], [ 83.585273, 28.20551 ], [ 83.585252, 28.20549 ], [ 83.585146, 28.205449 ], [ 83.584929, 28.205561 ], [ 83.584754, 28.205709 ], [ 83.58456, 28.205763 ], [ 83.584452, 28.20578 ], [ 83.584216, 28.205814 ], [ 83.583897, 28.205711 ], [ 83.583577, 28.205649 ], [ 83.58347, 28.205665 ], [ 83.583277, 28.205662 ], [ 83.583041, 28.205677 ], [ 83.582655, 28.205669 ], [ 83.582401, 28.205569 ], [ 83.582208, 28.205546 ], [ 83.581374, 28.205512 ], [ 83.581193, 28.205536 ], [ 83.581115, 28.205545 ], [ 83.580921, 28.205598 ], [ 83.580899, 28.205598 ], [ 83.58064, 28.20567 ], [ 83.580253, 28.205664 ], [ 83.579914, 28.205467 ], [ 83.579786, 28.205426 ], [ 83.579529, 28.205423 ], [ 83.579269, 28.205494 ], [ 83.57914, 28.205491 ], [ 83.578562, 28.205424 ], [ 83.578178, 28.205303 ], [ 83.578114, 28.205265 ], [ 83.577623, 28.20518 ], [ 83.577237, 28.205115 ], [ 83.576854, 28.204995 ], [ 83.576149, 28.20483 ], [ 83.574672, 28.204593 ], [ 83.574332, 28.204472 ], [ 83.574162, 28.204375 ], [ 83.57333, 28.204151 ], [ 83.572945, 28.204087 ], [ 83.572562, 28.203946 ], [ 83.57218, 28.203748 ], [ 83.571605, 28.203568 ], [ 83.571348, 28.203525 ], [ 83.570377, 28.20368 ], [ 83.57031, 28.203774 ], [ 83.570048, 28.20396 ], [ 83.569788, 28.204032 ], [ 83.569595, 28.204029 ], [ 83.569467, 28.203988 ], [ 83.569278, 28.203814 ], [ 83.569086, 28.203752 ], [ 83.568829, 28.203729 ], [ 83.568764, 28.203747 ], [ 83.568501, 28.203953 ], [ 83.568192, 28.204291 ], [ 83.56806, 28.204383 ], [ 83.567825, 28.204342 ], [ 83.567318, 28.204029 ], [ 83.566998, 28.203926 ], [ 83.566283, 28.204143 ], [ 83.565961, 28.204137 ], [ 83.565312, 28.204318 ], [ 83.56514, 28.204315 ], [ 83.565097, 28.204313 ], [ 83.564798, 28.204233 ], [ 83.563777, 28.203853 ], [ 83.562498, 28.203467 ], [ 83.562116, 28.20327 ], [ 83.561946, 28.20319 ], [ 83.561454, 28.203105 ], [ 83.560812, 28.202999 ], [ 83.559911, 28.202965 ], [ 83.559333, 28.202859 ], [ 83.558433, 28.202766 ], [ 83.557922, 28.202604 ], [ 83.556968, 28.202091 ], [ 83.556525, 28.201779 ], [ 83.555761, 28.201404 ], [ 83.555444, 28.201207 ], [ 83.555004, 28.200781 ], [ 83.554625, 28.200468 ], [ 83.553602, 28.200145 ], [ 83.553087, 28.200116 ], [ 83.552638, 28.200013 ], [ 83.551552, 28.199651 ], [ 83.551106, 28.199453 ], [ 83.550722, 28.199332 ], [ 83.550337, 28.199286 ], [ 83.550015, 28.19928 ], [ 83.549732, 28.19939 ], [ 83.549278, 28.199517 ], [ 83.548821, 28.199757 ], [ 83.548711, 28.199849 ], [ 83.5486, 28.199982 ], [ 83.547971, 28.201058 ], [ 83.547806, 28.201626 ], [ 83.547776, 28.201969 ], [ 83.547788, 28.203171 ], [ 83.547713, 28.20357 ], [ 83.547708, 28.2038 ], [ 83.547524, 28.204256 ], [ 83.547446, 28.204768 ], [ 83.54733, 28.20511 ], [ 83.547185, 28.205737 ], [ 83.547029, 28.205962 ], [ 83.54696, 28.206133 ], [ 83.546864, 28.206532 ], [ 83.546726, 28.206872 ], [ 83.546701, 28.207044 ], [ 83.546587, 28.207271 ], [ 83.546561, 28.207443 ], [ 83.546399, 28.207898 ], [ 83.546096, 28.208445 ], [ 83.546084, 28.208465 ], [ 83.545753, 28.208802 ], [ 83.54566, 28.209086 ], [ 83.545669, 28.209601 ], [ 83.545885, 28.210405 ], [ 83.545913, 28.210978 ], [ 83.545727, 28.211548 ], [ 83.545675, 28.211889 ], [ 83.545547, 28.213546 ], [ 83.545399, 28.214344 ], [ 83.545393, 28.214572 ], [ 83.545321, 28.214859 ], [ 83.545352, 28.215317 ], [ 83.545826, 28.215287 ], [ 83.546149, 28.215254 ], [ 83.546518, 28.215126 ], [ 83.546605, 28.215052 ], [ 83.546866, 28.214943 ], [ 83.547298, 28.214874 ], [ 83.547558, 28.214764 ], [ 83.547995, 28.214486 ], [ 83.548863, 28.214157 ], [ 83.549255, 28.213915 ], [ 83.549515, 28.213864 ], [ 83.549859, 28.213849 ], [ 83.550456, 28.214014 ], [ 83.550628, 28.214017 ], [ 83.551312, 28.214181 ], [ 83.551566, 28.214299 ], [ 83.552248, 28.214541 ], [ 83.552673, 28.214738 ], [ 83.553011, 28.214954 ], [ 83.553052, 28.215013 ], [ 83.55373, 28.215405 ], [ 83.554978, 28.216208 ], [ 83.555441, 28.216597 ], [ 83.555917, 28.217312 ], [ 83.556042, 28.217486 ], [ 83.556228, 28.217755 ], [ 83.556311, 28.217873 ], [ 83.556658, 28.218621 ], [ 83.556762, 28.218738 ], [ 83.557175, 28.219432 ], [ 83.557756, 28.220242 ], [ 83.558428, 28.220864 ], [ 83.558977, 28.221236 ], [ 83.559487, 28.221474 ], [ 83.559829, 28.221537 ], [ 83.559936, 28.221577 ], [ 83.559869, 28.221652 ], [ 83.559549, 28.222447 ], [ 83.559391, 28.222731 ], [ 83.559388, 28.222864 ], [ 83.559278, 28.222958 ], [ 83.559232, 28.223071 ], [ 83.559093, 28.22347 ], [ 83.559089, 28.223641 ], [ 83.558835, 28.224322 ], [ 83.55886, 28.225066 ], [ 83.558958, 28.225412 ], [ 83.559183, 28.225873 ], [ 83.559222, 28.226044 ], [ 83.559196, 28.227075 ], [ 83.559147, 28.227303 ], [ 83.559136, 28.227761 ], [ 83.559209, 28.228276 ], [ 83.559219, 28.229591 ], [ 83.559074, 28.230218 ], [ 83.558665, 28.231107 ], [ 83.558592, 28.23145 ], [ 83.558409, 28.231905 ], [ 83.558162, 28.232302 ], [ 83.557897, 28.232603 ], [ 83.557525, 28.232843 ], [ 83.557196, 28.233124 ], [ 83.556973, 28.233444 ], [ 83.55663, 28.234241 ], [ 83.556515, 28.234584 ], [ 83.556439, 28.235039 ], [ 83.55621, 28.235609 ], [ 83.556098, 28.235778 ], [ 83.556006, 28.236006 ], [ 83.555957, 28.236236 ], [ 83.555891, 28.23631 ], [ 83.555483, 28.237161 ], [ 83.555373, 28.237274 ], [ 83.555035, 28.2379 ], [ 83.554149, 28.238912 ], [ 83.553248, 28.239699 ], [ 83.552826, 28.240264 ], [ 83.552781, 28.24032 ], [ 83.552692, 28.240451 ], [ 83.552138, 28.24199 ], [ 83.551848, 28.242386 ], [ 83.551453, 28.242721 ], [ 83.550635, 28.243641 ], [ 83.550439, 28.243733 ], [ 83.550202, 28.243748 ], [ 83.550007, 28.243801 ], [ 83.54968, 28.244005 ], [ 83.549438, 28.24421 ], [ 83.549322, 28.24457 ], [ 83.54914, 28.244969 ], [ 83.549051, 28.245082 ], [ 83.548854, 28.24523 ], [ 83.54868, 28.245304 ], [ 83.548248, 28.24537 ], [ 83.547856, 28.245592 ], [ 83.547615, 28.245778 ], [ 83.547506, 28.245814 ], [ 83.547462, 28.245852 ], [ 83.547265, 28.246021 ], [ 83.546806, 28.246317 ], [ 83.546518, 28.246637 ], [ 83.546361, 28.2469 ], [ 83.546178, 28.247355 ], [ 83.545977, 28.247639 ], [ 83.545801, 28.247807 ], [ 83.545497, 28.247935 ], [ 83.544847, 28.248131 ], [ 83.544653, 28.248147 ], [ 83.544004, 28.248325 ], [ 83.543359, 28.248332 ], [ 83.543231, 28.248291 ], [ 83.542972, 28.248324 ], [ 83.542514, 28.248561 ], [ 83.541865, 28.24874 ], [ 83.539544, 28.248716 ], [ 83.53953, 28.248714 ], [ 83.539032, 28.248631 ], [ 83.538074, 28.24833 ], [ 83.53801, 28.24833 ], [ 83.537794, 28.248401 ], [ 83.537684, 28.248495 ], [ 83.537573, 28.248646 ], [ 83.537525, 28.248874 ], [ 83.537387, 28.249214 ], [ 83.537299, 28.249327 ], [ 83.537146, 28.249439 ], [ 83.536951, 28.249513 ], [ 83.536413, 28.249619 ], [ 83.536073, 28.249724 ], [ 83.53591, 28.249802 ], [ 83.535897, 28.249816 ], [ 83.535858, 28.249895 ], [ 83.535724, 28.250109 ], [ 83.535435, 28.250568 ], [ 83.535163, 28.25132 ], [ 83.535148, 28.251361 ], [ 83.535697, 28.251694 ], [ 83.536205, 28.251913 ], [ 83.537536, 28.252691 ], [ 83.539531, 28.254018 ], [ 83.540631, 28.254748 ], [ 83.54123, 28.255354 ], [ 83.541252, 28.255377 ], [ 83.541714, 28.255945 ], [ 83.54231, 28.256362 ], [ 83.542769, 28.256596 ], [ 83.543076, 28.25687 ], [ 83.54378, 28.257335 ], [ 83.544057, 28.257457 ], [ 83.544984, 28.257666 ], [ 83.547077, 28.257754 ], [ 83.548155, 28.257983 ], [ 83.549049, 28.258297 ], [ 83.550205, 28.259093 ], [ 83.550398, 28.259112 ], [ 83.550892, 28.260237 ], [ 83.551114, 28.260822 ], [ 83.551275, 28.261411 ], [ 83.551242, 28.261698 ], [ 83.551046, 28.26192 ], [ 83.550488, 28.262304 ], [ 83.550291, 28.262588 ], [ 83.550239, 28.262773 ], [ 83.550719, 28.26305 ], [ 83.55111, 28.263182 ], [ 83.55129, 28.263182 ], [ 83.552453, 28.262667 ], [ 83.552607, 28.262611 ], [ 83.553206, 28.262516 ], [ 83.553809, 28.262433 ], [ 83.555574, 28.26233 ], [ 83.555636, 28.262344 ], [ 83.555713, 28.26236 ], [ 83.557056, 28.263041 ], [ 83.557533, 28.263173 ], [ 83.557981, 28.263175 ], [ 83.558599, 28.263107 ], [ 83.55955, 28.262713 ], [ 83.560334, 28.262646 ], [ 83.560618, 28.262696 ], [ 83.560651, 28.262689 ], [ 83.560724, 28.262913 ], [ 83.560932, 28.263056 ], [ 83.561546, 28.263295 ], [ 83.561831, 28.263505 ], [ 83.562174, 28.263813 ], [ 83.562401, 28.264227 ], [ 83.562558, 28.265227 ], [ 83.562507, 28.265662 ], [ 83.562278, 28.266124 ], [ 83.562325, 28.266465 ], [ 83.562559, 28.266953 ], [ 83.562519, 28.267643 ], [ 83.562619, 28.268121 ], [ 83.562587, 28.26876 ], [ 83.562777, 28.269938 ], [ 83.563115, 28.270539 ], [ 83.563401, 28.271052 ], [ 83.563693, 28.271748 ], [ 83.563727, 28.272454 ], [ 83.563612, 28.272657 ], [ 83.563482, 28.272887 ], [ 83.563149, 28.273181 ], [ 83.56225, 28.273751 ], [ 83.562115, 28.27411 ], [ 83.56217, 28.274762 ], [ 83.561626, 28.276041 ], [ 83.561532, 28.277122 ], [ 83.561672, 28.278444 ], [ 83.561898, 28.278849 ], [ 83.561942, 28.279165 ], [ 83.561976, 28.279409 ], [ 83.561835, 28.279756 ], [ 83.56127, 28.28032 ], [ 83.561093, 28.280789 ], [ 83.560957, 28.281384 ], [ 83.560759, 28.28188 ], [ 83.56074, 28.28201 ], [ 83.560146, 28.280795 ], [ 83.559063, 28.27976 ], [ 83.558299, 28.278896 ], [ 83.557561, 28.277531 ], [ 83.557063, 28.276886 ], [ 83.55663, 28.275247 ], [ 83.55659, 28.274888 ], [ 83.556816, 28.273666 ], [ 83.556598, 28.273374 ], [ 83.55629, 28.273182 ], [ 83.555704, 28.272444 ], [ 83.555492, 28.272374 ], [ 83.554912, 28.272315 ], [ 83.553286, 28.27247 ], [ 83.552044, 28.272358 ], [ 83.551942, 28.272265 ], [ 83.551726, 28.271824 ], [ 83.551473, 28.270973 ], [ 83.551266, 28.271108 ], [ 83.550742, 28.271918 ], [ 83.55059, 28.272017 ], [ 83.549741, 28.272001 ], [ 83.548892, 28.271784 ], [ 83.54866, 28.271943 ], [ 83.54866, 28.272153 ], [ 83.548773, 28.272437 ], [ 83.549088, 28.27323 ], [ 83.549572, 28.273764 ], [ 83.549759, 28.274097 ], [ 83.549872, 28.274609 ], [ 83.549799, 28.275116 ], [ 83.549566, 28.275558 ], [ 83.549402, 28.275618 ], [ 83.549148, 28.2758 ], [ 83.548982, 28.275917 ], [ 83.547835, 28.276673 ], [ 83.546842, 28.277157 ], [ 83.546222, 28.277636 ], [ 83.545426, 28.278082 ], [ 83.544464, 28.278882 ], [ 83.543407, 28.2794 ], [ 83.543226, 28.279591 ], [ 83.5431, 28.279814 ], [ 83.54297, 28.280215 ], [ 83.542804, 28.280508 ], [ 83.542437, 28.280831 ], [ 83.542191, 28.280977 ], [ 83.540059, 28.281094 ], [ 83.53953, 28.281201 ], [ 83.539431, 28.281221 ], [ 83.538962, 28.281431 ], [ 83.538757, 28.281735 ], [ 83.538521, 28.282316 ], [ 83.538482, 28.282361 ], [ 83.537932, 28.283004 ], [ 83.537687, 28.283191 ], [ 83.536535, 28.283483 ], [ 83.535703, 28.283604 ], [ 83.535888, 28.284674 ], [ 83.536085, 28.285561 ], [ 83.536085, 28.285985 ], [ 83.536084, 28.286272 ], [ 83.536212, 28.28678 ], [ 83.536377, 28.287103 ], [ 83.536512, 28.287365 ], [ 83.536775, 28.287838 ], [ 83.53686, 28.288379 ], [ 83.536885, 28.289566 ], [ 83.537371, 28.29061 ], [ 83.537625, 28.291468 ], [ 83.537813, 28.291737 ], [ 83.537835, 28.291771 ], [ 83.538075, 28.292131 ], [ 83.538204, 28.292499 ], [ 83.538452, 28.293831 ], [ 83.538667, 28.294344 ], [ 83.53871, 28.294885 ], [ 83.538828, 28.29538 ], [ 83.538817, 28.295851 ], [ 83.538741, 28.296223 ], [ 83.538775, 28.296593 ], [ 83.538967, 28.297221 ], [ 83.539356, 28.298122 ], [ 83.53953, 28.298858 ], [ 83.539644, 28.299102 ], [ 83.539748, 28.299536 ], [ 83.539748, 28.300301 ], [ 83.539793, 28.300461 ], [ 83.53953, 28.300503 ], [ 83.538371, 28.300682 ], [ 83.537997, 28.300654 ], [ 83.537263, 28.300714 ], [ 83.535485, 28.30076 ], [ 83.535375, 28.300841 ], [ 83.535235, 28.302598 ], [ 83.535115, 28.303157 ], [ 83.535452, 28.303361 ], [ 83.537377, 28.304913 ], [ 83.537774, 28.305352 ], [ 83.53813, 28.30557 ], [ 83.538474, 28.305939 ], [ 83.53953, 28.306834 ], [ 83.539868, 28.307121 ], [ 83.540659, 28.307907 ], [ 83.541312, 28.308739 ], [ 83.542055, 28.310016 ], [ 83.542082, 28.310084 ], [ 83.542155, 28.310238 ], [ 83.542536, 28.310819 ], [ 83.542839, 28.311084 ], [ 83.542944, 28.311159 ], [ 83.543035, 28.311222 ], [ 83.544264, 28.312119 ], [ 83.544699, 28.312396 ], [ 83.545478, 28.312884 ], [ 83.546008, 28.313321 ], [ 83.546388, 28.313539 ], [ 83.547408, 28.313725 ], [ 83.547816, 28.313724 ], [ 83.548472, 28.313992 ], [ 83.54903, 28.313992 ], [ 83.549292, 28.313905 ], [ 83.551181, 28.314035 ], [ 83.551701, 28.313976 ], [ 83.552471, 28.31403 ], [ 83.553027, 28.314174 ], [ 83.553613, 28.314567 ], [ 83.554608, 28.315098 ], [ 83.555438, 28.315319 ], [ 83.556241, 28.315378 ], [ 83.556756, 28.315626 ], [ 83.557551, 28.31601 ], [ 83.558378, 28.316525 ], [ 83.559096, 28.316642 ], [ 83.559413, 28.316571 ], [ 83.560317, 28.31649 ], [ 83.560742, 28.316516 ], [ 83.561767, 28.316941 ], [ 83.562197, 28.317038 ], [ 83.562619, 28.317007 ], [ 83.56376, 28.316476 ], [ 83.563889, 28.3164 ], [ 83.563938, 28.316373 ], [ 83.563982, 28.316353 ], [ 83.564016, 28.316328 ], [ 83.564747, 28.315823 ], [ 83.566289, 28.315539 ], [ 83.566639, 28.31554 ], [ 83.568354, 28.315031 ], [ 83.568595, 28.31487 ], [ 83.569339, 28.314538 ], [ 83.569492, 28.314496 ], [ 83.56968, 28.314444 ], [ 83.570268, 28.313668 ], [ 83.570694, 28.313295 ], [ 83.57105, 28.31324 ], [ 83.5713, 28.313202 ], [ 83.571769, 28.313233 ], [ 83.572951, 28.313164 ], [ 83.574641, 28.312867 ], [ 83.575142, 28.312682 ], [ 83.575675, 28.312593 ], [ 83.576072, 28.312096 ], [ 83.57706, 28.311458 ], [ 83.577506, 28.311326 ], [ 83.57807, 28.311254 ], [ 83.578983, 28.311204 ], [ 83.579926, 28.311043 ], [ 83.580411, 28.311042 ], [ 83.580604, 28.310948 ], [ 83.58119, 28.310659 ], [ 83.581484, 28.310515 ], [ 83.582039, 28.310325 ], [ 83.583107, 28.310213 ], [ 83.583849, 28.310008 ], [ 83.583999, 28.309966 ], [ 83.584506, 28.309875 ], [ 83.58512, 28.309642 ], [ 83.586305, 28.308754 ], [ 83.586678, 28.308291 ], [ 83.587051, 28.307423 ], [ 83.58782, 28.306647 ], [ 83.588397, 28.306243 ], [ 83.588953, 28.305441 ], [ 83.588989, 28.304864 ], [ 83.589252, 28.304472 ], [ 83.589825, 28.303829 ], [ 83.590237, 28.303126 ], [ 83.590697, 28.302563 ], [ 83.591088, 28.302183 ], [ 83.591269, 28.301807 ], [ 83.59165, 28.301391 ], [ 83.591843, 28.301288 ], [ 83.592442, 28.300965 ], [ 83.592654, 28.30081 ], [ 83.593088, 28.300811 ], [ 83.593798, 28.300626 ], [ 83.594207, 28.300591 ], [ 83.594866, 28.300697 ], [ 83.595234, 28.300698 ], [ 83.595911, 28.300533 ], [ 83.596683, 28.300226 ], [ 83.599163, 28.298631 ], [ 83.599971, 28.298241 ], [ 83.600535, 28.298099 ], [ 83.601116, 28.298157 ], [ 83.601491, 28.298408 ], [ 83.601517, 28.298336 ], [ 83.601863, 28.297877 ], [ 83.602206, 28.297199 ], [ 83.602205, 28.297014 ], [ 83.60202, 28.296576 ], [ 83.601068, 28.294845 ], [ 83.600734, 28.293995 ], [ 83.600527, 28.293295 ], [ 83.60035, 28.292927 ], [ 83.600213, 28.292261 ], [ 83.600155, 28.291771 ], [ 83.600081, 28.291153 ], [ 83.600353, 28.289284 ], [ 83.600855, 28.288087 ], [ 83.6014, 28.287396 ], [ 83.602487, 28.286565 ], [ 83.602752, 28.286448 ], [ 83.604344, 28.286099 ], [ 83.604552, 28.286122 ], [ 83.605872, 28.286022 ], [ 83.606817, 28.285657 ], [ 83.607064, 28.285511 ], [ 83.607204, 28.285362 ], [ 83.607493, 28.285203 ], [ 83.607626, 28.284928 ], [ 83.607628, 28.284894 ], [ 83.607665, 28.284274 ], [ 83.607539, 28.283748 ], [ 83.607369, 28.283039 ], [ 83.606704, 28.281706 ], [ 83.605499, 28.280288 ], [ 83.605192, 28.279804 ], [ 83.605192, 28.279658 ], [ 83.604964, 28.279246 ], [ 83.604872, 28.278745 ], [ 83.6049, 28.277859 ], [ 83.605101, 28.276901 ], [ 83.605776, 28.274843 ], [ 83.605745, 28.274443 ], [ 83.605697, 28.27415 ], [ 83.605619, 28.273671 ], [ 83.605151, 28.271279 ], [ 83.605125, 28.271148 ], [ 83.605087, 28.270721 ], [ 83.605259, 28.269765 ], [ 83.605466, 28.269328 ], [ 83.605877, 28.268817 ], [ 83.607063, 28.268236 ], [ 83.609017, 28.267897 ], [ 83.609499, 28.267772 ], [ 83.60981, 28.267565 ], [ 83.610273, 28.267359 ], [ 83.610432, 28.267172 ], [ 83.610603, 28.266832 ], [ 83.610518, 28.265252 ], [ 83.610331, 28.264512 ], [ 83.609897, 28.263777 ], [ 83.609591, 28.263077 ], [ 83.609038, 28.262135 ], [ 83.608921, 28.261819 ], [ 83.608993, 28.261253 ], [ 83.609539, 28.259555 ], [ 83.609873, 28.25904 ], [ 83.610285, 28.258806 ], [ 83.610929, 28.258749 ], [ 83.611366, 28.25878 ], [ 83.61186, 28.258736 ], [ 83.612131, 28.258771 ], [ 83.613304, 28.258738 ], [ 83.613989, 28.258596 ], [ 83.614633, 28.258415 ], [ 83.615348, 28.257954 ], [ 83.615953, 28.257717 ], [ 83.615986, 28.257667 ], [ 83.616585, 28.256775 ], [ 83.616745, 28.256444 ], [ 83.616864, 28.255869 ], [ 83.616917, 28.254872 ], [ 83.617083, 28.254239 ], [ 83.617384, 28.253707 ], [ 83.617432, 28.253664 ], [ 83.617641, 28.253478 ], [ 83.618557, 28.252941 ], [ 83.619025, 28.252415 ], [ 83.619854, 28.252079 ], [ 83.620375, 28.251683 ], [ 83.622486, 28.250865 ], [ 83.622825, 28.250702 ], [ 83.622852, 28.250688 ], [ 83.623057, 28.250587 ], [ 83.623259, 28.250423 ], [ 83.623508, 28.250327 ], [ 83.624884, 28.250215 ], [ 83.625804, 28.250306 ], [ 83.62823, 28.250701 ], [ 83.628531, 28.250686 ], [ 83.628779, 28.250677 ], [ 83.629529, 28.250472 ], [ 83.629808, 28.250186 ], [ 83.6298, 28.250109 ], [ 83.629753, 28.249653 ], [ 83.629733, 28.249502 ], [ 83.629629, 28.248985 ], [ 83.62968, 28.247839 ], [ 83.629833, 28.247438 ], [ 83.629855, 28.247267 ], [ 83.629964, 28.247093 ], [ 83.629986, 28.246981 ], [ 83.630137, 28.246751 ], [ 83.630504, 28.246409 ], [ 83.630891, 28.246257 ], [ 83.631662, 28.246182 ], [ 83.633075, 28.246339 ], [ 83.633652, 28.246438 ], [ 83.633973, 28.246554 ], [ 83.634615, 28.246555 ], [ 83.635194, 28.24648 ], [ 83.636097, 28.246025 ], [ 83.636679, 28.24555 ], [ 83.63713, 28.245321 ], [ 83.637474, 28.245151 ], [ 83.637668, 28.244959 ], [ 83.639539, 28.243877 ], [ 83.639733, 28.243724 ], [ 83.640335, 28.243362 ], [ 83.641218, 28.242679 ], [ 83.641391, 28.242488 ], [ 83.641606, 28.242317 ], [ 83.64193, 28.241916 ], [ 83.64264, 28.241421 ], [ 83.642898, 28.241289 ], [ 83.643221, 28.241003 ], [ 83.643544, 28.240774 ], [ 83.643717, 28.240603 ], [ 83.645137, 28.239691 ], [ 83.645653, 28.239385 ], [ 83.645782, 28.239311 ], [ 83.646556, 28.238779 ], [ 83.647267, 28.238225 ], [ 83.647783, 28.237922 ], [ 83.648492, 28.237522 ], [ 83.648686, 28.237466 ], [ 83.649266, 28.237181 ], [ 83.649588, 28.237085 ], [ 83.649974, 28.23703 ], [ 83.650744, 28.23707 ], [ 83.651322, 28.237169 ], [ 83.651578, 28.237284 ], [ 83.652027, 28.237401 ], [ 83.652176, 28.237478 ], [ 83.652326, 28.237573 ], [ 83.652561, 28.237632 ], [ 83.653247, 28.237557 ], [ 83.653418, 28.237558 ], [ 83.654104, 28.237541 ], [ 83.655731, 28.237507 ], [ 83.656417, 28.237547 ], [ 83.657275, 28.237321 ], [ 83.657857, 28.236806 ], [ 83.658117, 28.236367 ], [ 83.658639, 28.235145 ], [ 83.659072, 28.234479 ], [ 83.659184, 28.233714 ], [ 83.65919, 28.232875 ], [ 83.659257, 28.232338 ], [ 83.659478, 28.231346 ], [ 83.659717, 28.230889 ], [ 83.660019, 28.230544 ], [ 83.660449, 28.230317 ], [ 83.660792, 28.23026 ], [ 83.661392, 28.230263 ], [ 83.661991, 28.230341 ], [ 83.662119, 28.230342 ], [ 83.662505, 28.230322 ], [ 83.663019, 28.230324 ], [ 83.663446, 28.230537 ], [ 83.663959, 28.230692 ], [ 83.664279, 28.230902 ], [ 83.664514, 28.231115 ], [ 83.664534, 28.231133 ], [ 83.665134, 28.231326 ], [ 83.66565, 28.231348 ], [ 83.666166, 28.231293 ], [ 83.667027, 28.231049 ], [ 83.667243, 28.230878 ], [ 83.667567, 28.230709 ], [ 83.667848, 28.23048 ], [ 83.668108, 28.23012 ], [ 83.668326, 28.229662 ], [ 83.668458, 28.229279 ], [ 83.668635, 28.22844 ], [ 83.668683, 28.227675 ], [ 83.668643, 28.227217 ], [ 83.66884, 28.226683 ], [ 83.669036, 28.226377 ], [ 83.66923, 28.226206 ], [ 83.669575, 28.226017 ], [ 83.669834, 28.225905 ], [ 83.670006, 28.225867 ], [ 83.670179, 28.225773 ], [ 83.670437, 28.225697 ], [ 83.670868, 28.225508 ], [ 83.671041, 28.225393 ], [ 83.671235, 28.225223 ], [ 83.671409, 28.225013 ], [ 83.671692, 28.224481 ], [ 83.671822, 28.224328 ], [ 83.672038, 28.224157 ], [ 83.672341, 28.223756 ], [ 83.672406, 28.223605 ], [ 83.672624, 28.223299 ], [ 83.672777, 28.222842 ], [ 83.67279, 28.220931 ], [ 83.673009, 28.22032 ], [ 83.673225, 28.220016 ], [ 83.673247, 28.219939 ], [ 83.673442, 28.219712 ], [ 83.673791, 28.219024 ], [ 83.67403, 28.218664 ], [ 83.674095, 28.218511 ], [ 83.674207, 28.217823 ], [ 83.674218, 28.217475 ], [ 83.674235, 28.216925 ], [ 83.674302, 28.216467 ], [ 83.674327, 28.215933 ], [ 83.674415, 28.215626 ], [ 83.674483, 28.215091 ], [ 83.674486, 28.214633 ], [ 83.674465, 28.2145 ], [ 83.674254, 28.213945 ], [ 83.674127, 28.213714 ], [ 83.673679, 28.21312 ], [ 83.673295, 28.212754 ], [ 83.672525, 28.212235 ], [ 83.672333, 28.212061 ], [ 83.671755, 28.211694 ], [ 83.671242, 28.211291 ], [ 83.670643, 28.211001 ], [ 83.669937, 28.210501 ], [ 83.669339, 28.209868 ], [ 83.669106, 28.209483 ], [ 83.669043, 28.209253 ], [ 83.669025, 28.208718 ], [ 83.669065, 28.208446 ], [ 83.66907, 28.208414 ], [ 83.669179, 28.208184 ], [ 83.669352, 28.207957 ], [ 83.670001, 28.207388 ], [ 83.670778, 28.206875 ], [ 83.671168, 28.206418 ], [ 83.671364, 28.206019 ], [ 83.671429, 28.205943 ], [ 83.671539, 28.205636 ], [ 83.671583, 28.205408 ], [ 83.671566, 28.204797 ], [ 83.671419, 28.204413 ], [ 83.671248, 28.204185 ], [ 83.6711, 28.203877 ], [ 83.670844, 28.203647 ], [ 83.670266, 28.203318 ], [ 83.669797, 28.2028 ], [ 83.669776, 28.202782 ], [ 83.669178, 28.202339 ], [ 83.668729, 28.202126 ], [ 83.668344, 28.201894 ], [ 83.668152, 28.201838 ], [ 83.667767, 28.201607 ], [ 83.667575, 28.201453 ], [ 83.667105, 28.201145 ], [ 83.666699, 28.200893 ], [ 83.665929, 28.200431 ], [ 83.665034, 28.199624 ], [ 83.66465, 28.199316 ], [ 83.664515, 28.199225 ], [ 83.663753, 28.198718 ], [ 83.663239, 28.198561 ], [ 83.662982, 28.198579 ], [ 83.662788, 28.198634 ], [ 83.66182, 28.198993 ], [ 83.661497, 28.199046 ], [ 83.661175, 28.199046 ], [ 83.660338, 28.199154 ], [ 83.660145, 28.199133 ], [ 83.659695, 28.198997 ], [ 83.659161, 28.19865 ], [ 83.659119, 28.198573 ], [ 83.65908, 28.198075 ], [ 83.658936, 28.197235 ], [ 83.658874, 28.197005 ], [ 83.658642, 28.196467 ], [ 83.658498, 28.195702 ], [ 83.658459, 28.195167 ], [ 83.658504, 28.194919 ], [ 83.658442, 28.194518 ], [ 83.658359, 28.194213 ], [ 83.658232, 28.193982 ], [ 83.65804, 28.193808 ], [ 83.65772, 28.193616 ], [ 83.657527, 28.193556 ], [ 83.657013, 28.193515 ], [ 83.656626, 28.193626 ], [ 83.656367, 28.193797 ], [ 83.65585, 28.193985 ], [ 83.655593, 28.193944 ], [ 83.655273, 28.193713 ], [ 83.654998, 28.193158 ], [ 83.654765, 28.19285 ], [ 83.654552, 28.192676 ], [ 83.654126, 28.192197 ], [ 83.653935, 28.191889 ], [ 83.653852, 28.191582 ], [ 83.653876, 28.191278 ], [ 83.6538, 28.190055 ], [ 83.653695, 28.189748 ], [ 83.653419, 28.189345 ], [ 83.653228, 28.189038 ], [ 83.652824, 28.188615 ], [ 83.652589, 28.188405 ], [ 83.652355, 28.188172 ], [ 83.652122, 28.18779 ], [ 83.651828, 28.187022 ], [ 83.651595, 28.186658 ], [ 83.651061, 28.186312 ], [ 83.65074, 28.186176 ], [ 83.650225, 28.186172 ], [ 83.649773, 28.186417 ], [ 83.64945, 28.186549 ], [ 83.648934, 28.186678 ], [ 83.648483, 28.186675 ], [ 83.648291, 28.186616 ], [ 83.648163, 28.186501 ], [ 83.647951, 28.186213 ], [ 83.647634, 28.185599 ], [ 83.647387, 28.184222 ], [ 83.647374, 28.184039 ], [ 83.647023, 28.184086 ], [ 83.64638, 28.184082 ], [ 83.646059, 28.184022 ], [ 83.645479, 28.183998 ], [ 83.645094, 28.183939 ], [ 83.644514, 28.183935 ], [ 83.644321, 28.183973 ], [ 83.643742, 28.183969 ], [ 83.643355, 28.184004 ], [ 83.642132, 28.183996 ], [ 83.64181, 28.184088 ], [ 83.641551, 28.184241 ], [ 83.640795, 28.184922 ], [ 83.640322, 28.185208 ], [ 83.640128, 28.18534 ], [ 83.64, 28.185417 ], [ 83.639827, 28.185588 ], [ 83.63974, 28.185759 ], [ 83.63946, 28.186103 ], [ 83.639116, 28.186369 ], [ 83.638793, 28.186616 ], [ 83.638256, 28.186842 ], [ 83.637934, 28.186995 ], [ 83.636257, 28.188134 ], [ 83.635033, 28.188643 ], [ 83.634453, 28.188985 ], [ 83.63426, 28.189043 ], [ 83.633617, 28.189077 ], [ 83.63336, 28.189153 ], [ 83.632908, 28.189398 ], [ 83.632671, 28.189627 ], [ 83.632454, 28.190143 ], [ 83.631935, 28.190887 ], [ 83.631827, 28.191116 ], [ 83.631588, 28.191689 ], [ 83.631135, 28.192202 ], [ 83.630812, 28.192487 ], [ 83.630683, 28.192661 ], [ 83.630443, 28.193348 ], [ 83.630117, 28.194036 ], [ 83.629859, 28.194245 ], [ 83.629258, 28.194433 ], [ 83.628872, 28.194488 ], [ 83.628486, 28.1946 ], [ 83.628164, 28.194655 ], [ 83.627736, 28.194769 ], [ 83.627349, 28.194901 ], [ 83.627027, 28.19511 ], [ 83.626596, 28.195529 ], [ 83.626509, 28.195643 ], [ 83.626422, 28.195853 ], [ 83.626378, 28.196083 ], [ 83.626376, 28.196426 ], [ 83.62648, 28.197002 ], [ 83.626543, 28.197173 ], [ 83.626541, 28.197462 ], [ 83.626686, 28.198209 ], [ 83.626729, 28.198266 ], [ 83.626769, 28.198667 ], [ 83.626659, 28.199069 ], [ 83.626637, 28.199299 ], [ 83.626463, 28.1997 ], [ 83.626312, 28.199871 ], [ 83.626204, 28.200062 ], [ 83.626074, 28.200233 ], [ 83.625449, 28.20092 ], [ 83.625191, 28.201147 ], [ 83.624954, 28.2013 ], [ 83.624609, 28.201662 ], [ 83.623963, 28.202136 ], [ 83.623426, 28.20246 ], [ 83.623168, 28.202572 ], [ 83.622854, 28.202602 ], [ 83.622825, 28.202605 ], [ 83.622441, 28.202712 ], [ 83.621744, 28.203177 ], [ 83.621399, 28.203284 ], [ 83.621269, 28.20334 ], [ 83.620815, 28.203483 ], [ 83.62075, 28.203519 ], [ 83.620363, 28.20357 ], [ 83.619979, 28.203544 ], [ 83.619532, 28.203401 ], [ 83.619343, 28.203265 ], [ 83.619, 28.202436 ], [ 83.618875, 28.2023 ], [ 83.618621, 28.202182 ], [ 83.618432, 28.202006 ], [ 83.61835, 28.20187 ], [ 83.618211, 28.201448 ], [ 83.618067, 28.201217 ], [ 83.617794, 28.201002 ], [ 83.617117, 28.200664 ], [ 83.616865, 28.20047 ], [ 83.616803, 28.200372 ], [ 83.616773, 28.199876 ], [ 83.616714, 28.199646 ], [ 83.616395, 28.198722 ], [ 83.616229, 28.19851 ], [ 83.615872, 28.198236 ], [ 83.615831, 28.198138 ], [ 83.615456, 28.197731 ], [ 83.61525, 28.197422 ], [ 83.615188, 28.197345 ], [ 83.614892, 28.197168 ], [ 83.614766, 28.197068 ], [ 83.614638, 28.197048 ], [ 83.613995, 28.197073 ], [ 83.613736, 28.197144 ], [ 83.613279, 28.197423 ], [ 83.613021, 28.197494 ], [ 83.612765, 28.197433 ], [ 83.612447, 28.197292 ], [ 83.612127, 28.197248 ], [ 83.611742, 28.19724 ], [ 83.611422, 28.197176 ], [ 83.611096, 28.197381 ], [ 83.61092, 28.197567 ], [ 83.610673, 28.198022 ], [ 83.610473, 28.198304 ], [ 83.610272, 28.198644 ], [ 83.61002, 28.199268 ], [ 83.609732, 28.199664 ], [ 83.609579, 28.199756 ], [ 83.609126, 28.19992 ], [ 83.608865, 28.200048 ], [ 83.608154, 28.200226 ], [ 83.607958, 28.200336 ], [ 83.607764, 28.20039 ], [ 83.607633, 28.200482 ], [ 83.607504, 28.200518 ], [ 83.607305, 28.200743 ], [ 83.607236, 28.20097 ], [ 83.607357, 28.201259 ], [ 83.608087, 28.202017 ], [ 83.608355, 28.202424 ], [ 83.608396, 28.202519 ], [ 83.608561, 28.202752 ], [ 83.608685, 28.202926 ], [ 83.608724, 28.2031 ], [ 83.608634, 28.203269 ], [ 83.608416, 28.203417 ], [ 83.608222, 28.20347 ], [ 83.607577, 28.203554 ], [ 83.60732, 28.203549 ], [ 83.606933, 28.2036 ], [ 83.606694, 28.203728 ], [ 83.606537, 28.20403 ], [ 83.606616, 28.20426 ], [ 83.606783, 28.204436 ], [ 83.607016, 28.204554 ], [ 83.607549, 28.20466 ], [ 83.60866, 28.204758 ], [ 83.609087, 28.204824 ], [ 83.609686, 28.204853 ], [ 83.61054, 28.204966 ], [ 83.610882, 28.204972 ], [ 83.611309, 28.205038 ], [ 83.612508, 28.20508 ], [ 83.612849, 28.205144 ], [ 83.613277, 28.205132 ], [ 83.613362, 28.205173 ], [ 83.613465, 28.205326 ], [ 83.613634, 28.205426 ], [ 83.6138, 28.205639 ], [ 83.614051, 28.205854 ], [ 83.614343, 28.206166 ], [ 83.614572, 28.206437 ], [ 83.614675, 28.206611 ], [ 83.614801, 28.206709 ], [ 83.614965, 28.207016 ], [ 83.614934, 28.207359 ], [ 83.614867, 28.207474 ], [ 83.61475, 28.20787 ], [ 83.614639, 28.208041 ], [ 83.61444, 28.208266 ], [ 83.614245, 28.208358 ], [ 83.614009, 28.208353 ], [ 83.613818, 28.208292 ], [ 83.61369, 28.208289 ], [ 83.613516, 28.208402 ], [ 83.613484, 28.208447 ], [ 83.613338, 28.208647 ], [ 83.613246, 28.208931 ], [ 83.613194, 28.209274 ], [ 83.613038, 28.209558 ], [ 83.612595, 28.210123 ], [ 83.611959, 28.210741 ], [ 83.611692, 28.211137 ], [ 83.611557, 28.211424 ], [ 83.611417, 28.211879 ], [ 83.611315, 28.212564 ], [ 83.611171, 28.213193 ], [ 83.611164, 28.21348 ], [ 83.611243, 28.213769 ], [ 83.61147, 28.214117 ], [ 83.61155, 28.214347 ], [ 83.611547, 28.214463 ], [ 83.611432, 28.214805 ], [ 83.611407, 28.214918 ], [ 83.611337, 28.215166 ], [ 83.611336, 28.215222 ], [ 83.611522, 28.215514 ], [ 83.611621, 28.215803 ], [ 83.611759, 28.216322 ], [ 83.611793, 28.216665 ], [ 83.611723, 28.216895 ], [ 83.611591, 28.217064 ], [ 83.61124, 28.217401 ], [ 83.611194, 28.217514 ], [ 83.611184, 28.217915 ], [ 83.611223, 28.218089 ], [ 83.611386, 28.218437 ], [ 83.611616, 28.218652 ], [ 83.612296, 28.218893 ], [ 83.612804, 28.219132 ], [ 83.613311, 28.219426 ], [ 83.613478, 28.219621 ], [ 83.613536, 28.219851 ], [ 83.613526, 28.220309 ], [ 83.613477, 28.220537 ], [ 83.613187, 28.22101 ], [ 83.612978, 28.220797 ], [ 83.612895, 28.22068 ], [ 83.612769, 28.220564 ], [ 83.612494, 28.220444 ], [ 83.6123, 28.220479 ], [ 83.611851, 28.220451 ], [ 83.611462, 28.220558 ], [ 83.611205, 28.220573 ], [ 83.610882, 28.220662 ], [ 83.610306, 28.220557 ], [ 83.609924, 28.220416 ], [ 83.609164, 28.219942 ], [ 83.608909, 28.21986 ], [ 83.608655, 28.219722 ], [ 83.608467, 28.219528 ], [ 83.608215, 28.219351 ], [ 83.607712, 28.218882 ], [ 83.607463, 28.218532 ], [ 83.607444, 28.218455 ], [ 83.607234, 28.218261 ], [ 83.606665, 28.217905 ], [ 83.606282, 28.217784 ], [ 83.605769, 28.217756 ], [ 83.605386, 28.217651 ], [ 83.60488, 28.217318 ], [ 83.60444, 28.216908 ], [ 83.604357, 28.216772 ], [ 83.604232, 28.216655 ], [ 83.60417, 28.216558 ], [ 83.604127, 28.216537 ], [ 83.603793, 28.216186 ] ] ] ] } }
]
}
