{
"type": "FeatureCollection",
"name": "WaterWay_baglung",
"crs": { "type": "name", "properties": { "name": "urn:ogc:def:crs:OGC:1.3:CRS84" } },
"xy_coordinate_resolution": 1e-06,
"features": [
{ "type": "Feature", "properties": { "full_id": "w26948734", "osm_id": "26948734", "osm_type": "way", "waterway": "river", "seasonal": null, "admin_leve": null, "tunnel": null, "layer": null, "name_ne": null, "intermitte": null, "name_hi": "गंडक नदी", "name_en": "Kali Gandaki River", "int_name": "Kali Gandaki", "source_geo": null, "name": "कालीगण्डकी नदी" }, "geometry": { "type": "MultiLineString", "coordinates": [ [ [ 83.601777, 28.296133 ], [ 83.601704, 28.296051 ], [ 83.601449, 28.295703 ], [ 83.601322, 28.295492 ], [ 83.601202, 28.295258 ], [ 83.601096, 28.294995 ], [ 83.600986, 28.294637 ] ], [ [ 83.600157, 28.290633 ], [ 83.600167, 28.290488 ], [ 83.600216, 28.290175 ], [ 83.600235, 28.290091 ] ], [ [ 83.605792, 28.280633 ], [ 83.605439, 28.28024 ], [ 83.605275, 28.280071 ], [ 83.60514, 28.279893 ], [ 83.60506, 28.279729 ], [ 83.604991, 28.279538 ], [ 83.604908, 28.279241 ], [ 83.604874, 28.278937 ], [ 83.604868, 28.278506 ], [ 83.604888, 28.27823 ] ], [ [ 83.604973, 28.27751 ], [ 83.60498, 28.277456 ], [ 83.604992, 28.277416 ] ], [ [ 83.605571, 28.273426 ], [ 83.605395, 28.272748 ], [ 83.605266, 28.272128 ], [ 83.605214, 28.271846 ], [ 83.605174, 28.271483 ], [ 83.605174, 28.271399 ] ], [ [ 83.605392, 28.269484 ], [ 83.605416, 28.269412 ], [ 83.605541, 28.269186 ], [ 83.605664, 28.269044 ], [ 83.605762, 28.26896 ] ], [ [ 83.60854, 28.26798 ], [ 83.609729, 28.267619 ] ], [ [ 83.609663, 28.263243 ], [ 83.609479, 28.262956 ], [ 83.609345, 28.262659 ], [ 83.609344, 28.262657 ] ], [ [ 83.609488, 28.259714 ], [ 83.609519, 28.25958 ], [ 83.609611, 28.259325 ], [ 83.609688, 28.25919 ], [ 83.609806, 28.259063 ], [ 83.609958, 28.258944 ], [ 83.610171, 28.258852 ], [ 83.610244, 28.258829 ] ], [ [ 83.610327, 28.258802 ], [ 83.610377, 28.258786 ], [ 83.610619, 28.258734 ], [ 83.610783, 28.258724 ], [ 83.611064, 28.258753 ], [ 83.611114, 28.258762 ] ], [ [ 83.61445, 28.258466 ], [ 83.614543, 28.258378 ], [ 83.61483, 28.258141 ], [ 83.614991, 28.258049 ], [ 83.615248, 28.257945 ], [ 83.615568, 28.257868 ] ], [ [ 83.616767, 28.256338 ], [ 83.616831, 28.255353 ], [ 83.616876, 28.254879 ], [ 83.61693, 28.254635 ], [ 83.617001, 28.25446 ], [ 83.617046, 28.254379 ] ], [ [ 83.619627, 28.252171 ], [ 83.619859, 28.252039 ], [ 83.619991, 28.251975 ] ], [ [ 83.629784, 28.25021 ], [ 83.629799, 28.250099 ] ], [ [ 83.629678, 28.249231 ], [ 83.62967, 28.249194 ], [ 83.629577, 28.248884 ], [ 83.629493, 28.24853 ], [ 83.629475, 28.248358 ], [ 83.629504, 28.248197 ], [ 83.629577, 28.248029 ], [ 83.629697, 28.247796 ] ], [ [ 83.631497, 28.246198 ], [ 83.631626, 28.246163 ], [ 83.631882, 28.246088 ], [ 83.632044, 28.246061 ], [ 83.632192, 28.246066 ], [ 83.632417, 28.24607 ], [ 83.632597, 28.246094 ], [ 83.633098, 28.246248 ], [ 83.633455, 28.24634 ], [ 83.633745, 28.246401 ], [ 83.63403, 28.246452 ], [ 83.634264, 28.246477 ], [ 83.634394, 28.246467 ], [ 83.634614, 28.246415 ], [ 83.634912, 28.246318 ], [ 83.635123, 28.246233 ], [ 83.63544, 28.24608 ], [ 83.635858, 28.245848 ], [ 83.636316, 28.245582 ], [ 83.636802, 28.245288 ], [ 83.638157, 28.24449 ], [ 83.63931, 28.243819 ], [ 83.640222, 28.243294 ], [ 83.640795, 28.242955 ], [ 83.641056, 28.242786 ], [ 83.641237, 28.242658 ] ], [ [ 83.642412, 28.24158 ], [ 83.642419, 28.241574 ], [ 83.642583, 28.241437 ], [ 83.642752, 28.241307 ], [ 83.642878, 28.241227 ], [ 83.643071, 28.24112 ], [ 83.643115, 28.241097 ] ], [ [ 83.645123, 28.239699 ], [ 83.645691, 28.239197 ], [ 83.646185, 28.238795 ], [ 83.646485, 28.238587 ], [ 83.646764, 28.238407 ], [ 83.647113, 28.238207 ], [ 83.647575, 28.237953 ], [ 83.647867, 28.237821 ], [ 83.648143, 28.237719 ] ], [ [ 83.650161, 28.23704 ], [ 83.650385, 28.236952 ], [ 83.650501, 28.23693 ], [ 83.650624, 28.236952 ], [ 83.650773, 28.237011 ], [ 83.650864, 28.237091 ] ], [ [ 83.657262, 28.237325 ], [ 83.657357, 28.237225 ], [ 83.657586, 28.236818 ], [ 83.65763, 28.236727 ], [ 83.657817, 28.236413 ], [ 83.658008, 28.236152 ], [ 83.658104, 28.236035 ], [ 83.658198, 28.235874 ], [ 83.658282, 28.235674 ], [ 83.65837, 28.235305 ], [ 83.658435, 28.235154 ], [ 83.658504, 28.235061 ], [ 83.658617, 28.234939 ], [ 83.658826, 28.234676 ], [ 83.658925, 28.234497 ], [ 83.658974, 28.234298 ], [ 83.65899, 28.234038 ], [ 83.659035, 28.233358 ], [ 83.659155, 28.232302 ], [ 83.659186, 28.232084 ], [ 83.659269, 28.231843 ], [ 83.659379, 28.231536 ], [ 83.659515, 28.231262 ], [ 83.659561, 28.231188 ] ], [ [ 83.660943, 28.230261 ], [ 83.661135, 28.230243 ], [ 83.661336, 28.230263 ] ], [ [ 83.66592, 28.231319 ], [ 83.666149, 28.231275 ], [ 83.666588, 28.231134 ], [ 83.666996, 28.230976 ], [ 83.667283, 28.230841 ], [ 83.66757, 28.230676 ], [ 83.667774, 28.230503 ], [ 83.667954, 28.2303 ], [ 83.668101, 28.230106 ], [ 83.668195, 28.229929 ], [ 83.668305, 28.229676 ], [ 83.668353, 28.229428 ], [ 83.668453, 28.228742 ], [ 83.668587, 28.22748 ], [ 83.668632, 28.227183 ], [ 83.668659, 28.227041 ], [ 83.668718, 28.226897 ], [ 83.668815, 28.226682 ], [ 83.668919, 28.22649 ], [ 83.669059, 28.226311 ], [ 83.669206, 28.22619 ], [ 83.66934, 28.226112 ], [ 83.669576, 28.226013 ], [ 83.669626, 28.225995 ] ], [ [ 83.669947, 28.22588 ], [ 83.670058, 28.225839 ] ], [ [ 83.670429, 28.225699 ], [ 83.67045, 28.225691 ] ], [ [ 83.670575, 28.225636 ], [ 83.670732, 28.225538 ], [ 83.670939, 28.225347 ], [ 83.67103, 28.22525 ], [ 83.671583, 28.22456 ], [ 83.671819, 28.224264 ], [ 83.672065, 28.223947 ], [ 83.672264, 28.223657 ], [ 83.672401, 28.22339 ], [ 83.672478, 28.223193 ], [ 83.672532, 28.223009 ], [ 83.672614, 28.222718 ], [ 83.672682, 28.222269 ], [ 83.672723, 28.221953 ], [ 83.672751, 28.221681 ], [ 83.672755, 28.221463 ], [ 83.672736, 28.221277 ], [ 83.672672, 28.220797 ], [ 83.67268, 28.220532 ], [ 83.672713, 28.220374 ], [ 83.672741, 28.220253 ], [ 83.6728, 28.220128 ], [ 83.672924, 28.219918 ], [ 83.67301, 28.2198 ], [ 83.673356, 28.219362 ], [ 83.673522, 28.219129 ], [ 83.673637, 28.218923 ], [ 83.673704, 28.218729 ], [ 83.673765, 28.21848 ], [ 83.674313, 28.216231 ] ], [ [ 83.674426, 28.215536 ], [ 83.674434, 28.21546 ], [ 83.674449, 28.215133 ], [ 83.674445, 28.214955 ], [ 83.674434, 28.214728 ], [ 83.674414, 28.214616 ], [ 83.674385, 28.214496 ], [ 83.674276, 28.214084 ], [ 83.674064, 28.213693 ], [ 83.673781, 28.213274 ], [ 83.673538, 28.212985 ] ], [ [ 83.670354, 28.210796 ], [ 83.670108, 28.210685 ], [ 83.670093, 28.210678 ], [ 83.66981, 28.210544 ], [ 83.669494, 28.210298 ], [ 83.66937, 28.210114 ], [ 83.669289, 28.209925 ], [ 83.669223, 28.209676 ] ], [ [ 83.669385, 28.207929 ], [ 83.669885, 28.207391 ], [ 83.670437, 28.206876 ], [ 83.671227, 28.206125 ], [ 83.671435, 28.205926 ] ], [ [ 83.671207, 28.204099 ], [ 83.670943, 28.203861 ], [ 83.670708, 28.203666 ], [ 83.670515, 28.203479 ], [ 83.670445, 28.20342 ] ], [ [ 83.670072, 28.203104 ], [ 83.66996, 28.203009 ], [ 83.669641, 28.202744 ] ] ] } },
{ "type": "Feature", "properties": { "full_id": "w26948972", "osm_id": "26948972", "osm_type": "way", "waterway": "river", "seasonal": null, "admin_leve": null, "tunnel": null, "layer": null, "name_ne": null, "intermitte": "no", "name_hi": null, "name_en": null, "int_name": null, "source_geo": null, "name": "Modi Khola" }, "geometry": { "type": "LineString", "coordinates": [ [ 83.669697, 28.202724 ], [ 83.669641, 28.202744 ] ] } },
{ "type": "Feature", "properties": { "full_id": "w287813334", "osm_id": "287813334", "osm_type": "way", "waterway": "river", "seasonal": null, "admin_leve": null, "tunnel": null, "layer": null, "name_ne": null, "intermitte": null, "name_hi": null, "name_en": null, "int_name": null, "source_geo": null, "name": "Kanthe Khola" }, "geometry": { "type": "MultiLineString", "coordinates": [ [ [ 83.55574, 28.262373 ], [ 83.555759, 28.262376 ], [ 83.555892, 28.262417 ], [ 83.55606, 28.262533 ], [ 83.556068, 28.26254 ] ], [ [ 83.560874, 28.263016 ], [ 83.560901, 28.263024 ], [ 83.560951, 28.263027 ], [ 83.560993, 28.263016 ], [ 83.561026, 28.262989 ], [ 83.561048, 28.262944 ], [ 83.561057, 28.262878 ], [ 83.56138, 28.262232 ], [ 83.561539, 28.261621 ], [ 83.561974, 28.261103 ], [ 83.563872, 28.261344 ], [ 83.565743, 28.2624 ], [ 83.567722, 28.262492 ], [ 83.568891, 28.262806 ], [ 83.569222, 28.262895 ], [ 83.570814, 28.263529 ], [ 83.571818, 28.263207 ], [ 83.572919, 28.262208 ], [ 83.574921, 28.262357 ], [ 83.576344, 28.262338 ], [ 83.577642, 28.261963 ], [ 83.579747, 28.261891 ], [ 83.581411, 28.2613 ], [ 83.583079, 28.261934 ], [ 83.584372, 28.262492 ], [ 83.58573, 28.261968 ], [ 83.586695, 28.262309 ], [ 83.587148, 28.263001 ], [ 83.587769, 28.263774 ], [ 83.588137, 28.263918 ], [ 83.58865, 28.263891 ], [ 83.589374, 28.263704 ], [ 83.589731, 28.263501 ], [ 83.59001, 28.263318 ], [ 83.590344, 28.263238 ], [ 83.590663, 28.263214 ], [ 83.591271, 28.263388 ], [ 83.591644, 28.263306 ], [ 83.591893, 28.26318 ], [ 83.592059, 28.263063 ], [ 83.592247, 28.262934 ], [ 83.592596, 28.2627 ], [ 83.593381, 28.262833 ], [ 83.594275, 28.263414 ], [ 83.595077, 28.264009 ], [ 83.595813, 28.263952 ], [ 83.595955, 28.263438 ], [ 83.595333, 28.262636 ], [ 83.595432, 28.261781 ], [ 83.596124, 28.261723 ], [ 83.596871, 28.261334 ], [ 83.598109, 28.260767 ], [ 83.599424, 28.261099 ], [ 83.600743, 28.26069 ], [ 83.601785, 28.260224 ], [ 83.602265, 28.259782 ], [ 83.602101, 28.2591 ], [ 83.602554, 28.258577 ], [ 83.603046, 28.25819 ], [ 83.603896, 28.25764 ], [ 83.605243, 28.257155 ], [ 83.606268, 28.256386 ], [ 83.607729, 28.256156 ], [ 83.60882, 28.25568 ], [ 83.60966, 28.255147 ], [ 83.611492, 28.254114 ], [ 83.613276, 28.253398 ], [ 83.614279, 28.253302 ], [ 83.615899, 28.25312 ], [ 83.617203, 28.25392 ], [ 83.617247, 28.253949 ] ] ] } },
{ "type": "Feature", "properties": { "full_id": "w302489370", "osm_id": "302489370", "osm_type": "way", "waterway": "stream", "seasonal": null, "admin_leve": null, "tunnel": null, "layer": null, "name_ne": null, "intermitte": null, "name_hi": null, "name_en": null, "int_name": null, "source_geo": null, "name": null }, "geometry": { "type": "MultiLineString", "coordinates": [ [ [ 83.567723, 28.279203 ], [ 83.567715, 28.279029 ], [ 83.567673, 28.278808 ], [ 83.567636, 28.278658 ], [ 83.567583, 28.278477 ], [ 83.567513, 28.278305 ], [ 83.56743, 28.278129 ], [ 83.567269, 28.277985 ], [ 83.56709, 28.277869 ], [ 83.566944, 28.277805 ], [ 83.566898, 28.27779 ], [ 83.566767, 28.277713 ], [ 83.566546, 28.27767 ], [ 83.56634, 28.277627 ], [ 83.566111, 28.277601 ], [ 83.565958, 28.277578 ], [ 83.565902, 28.277531 ], [ 83.565854, 28.277489 ], [ 83.565777, 28.277378 ], [ 83.565726, 28.277225 ], [ 83.565728, 28.277068 ], [ 83.56572, 28.276959 ], [ 83.565705, 28.276828 ], [ 83.565643, 28.276783 ], [ 83.565518, 28.276755 ], [ 83.565295, 28.276755 ], [ 83.565146, 28.276793 ], [ 83.564953, 28.276798 ], [ 83.564734, 28.276763 ], [ 83.564592, 28.276662 ], [ 83.56443, 28.276594 ], [ 83.564267, 28.276605 ], [ 83.564145, 28.276671 ], [ 83.56395, 28.276701 ], [ 83.563788, 28.276583 ], [ 83.563625, 28.276538 ], [ 83.563414, 28.276433 ], [ 83.563234, 28.276301 ], [ 83.563128, 28.276191 ], [ 83.563062, 28.276153 ], [ 83.562964, 28.276095 ], [ 83.562815, 28.275997 ], [ 83.562673, 28.275913 ], [ 83.562556, 28.275778 ], [ 83.562477, 28.27561 ], [ 83.562414, 28.275458 ], [ 83.562297, 28.275318 ], [ 83.562214, 28.27521 ], [ 83.562169, 28.275045 ], [ 83.56222, 28.274931 ], [ 83.56228, 28.274777 ], [ 83.562214, 28.274693 ], [ 83.562157, 28.274601 ] ], [ [ 83.562147, 28.274482 ], [ 83.562148, 28.274358 ], [ 83.562253, 28.274143 ], [ 83.562327, 28.273946 ] ] ] } },
{ "type": "Feature", "properties": { "full_id": "w343534912", "osm_id": "343534912", "osm_type": "way", "waterway": "river", "seasonal": null, "admin_leve": null, "tunnel": null, "layer": null, "name_ne": null, "intermitte": null, "name_hi": "गंडक नदी", "name_en": "Kali Gandaki River", "int_name": "Kali Gandaki", "source_geo": null, "name": "कालीगण्डकी नदी" }, "geometry": { "type": "MultiLineString", "coordinates": [ [ [ 83.669641, 28.202744 ], [ 83.669515, 28.202635 ], [ 83.669343, 28.202515 ], [ 83.668994, 28.2023 ], [ 83.668274, 28.201915 ], [ 83.667744, 28.201652 ], [ 83.667321, 28.201432 ], [ 83.66706, 28.201279 ], [ 83.666779, 28.201087 ], [ 83.66654, 28.200891 ], [ 83.66614, 28.200557 ] ], [ [ 83.664842, 28.19947 ], [ 83.66466, 28.199364 ], [ 83.664381, 28.199229 ], [ 83.663914, 28.199035 ], [ 83.663638, 28.198948 ], [ 83.663429, 28.198894 ], [ 83.663233, 28.19887 ], [ 83.663016, 28.198853 ], [ 83.662785, 28.198853 ], [ 83.662257, 28.198874 ], [ 83.662102, 28.198888 ] ], [ [ 83.661302, 28.199046 ], [ 83.66072, 28.199179 ], [ 83.660398, 28.199227 ], [ 83.660201, 28.199226 ], [ 83.659974, 28.199182 ], [ 83.659719, 28.199064 ], [ 83.659553, 28.198956 ], [ 83.659451, 28.198846 ], [ 83.659442, 28.198832 ] ], [ [ 83.658983, 28.197506 ], [ 83.65886, 28.197058 ], [ 83.658756, 28.196731 ] ], [ [ 83.658548, 28.195971 ], [ 83.658447, 28.195539 ], [ 83.658319, 28.195064 ], [ 83.658161, 28.194591 ], [ 83.657988, 28.194156 ], [ 83.657893, 28.193967 ], [ 83.65778, 28.193809 ], [ 83.657617, 28.193662 ], [ 83.657445, 28.193603 ], [ 83.657268, 28.193584 ], [ 83.657066, 28.193638 ], [ 83.656589, 28.193972 ], [ 83.656455, 28.194057 ], [ 83.656279, 28.194133 ], [ 83.656069, 28.194168 ], [ 83.655901, 28.194161 ], [ 83.655634, 28.194078 ], [ 83.655458, 28.193958 ], [ 83.655294, 28.193806 ], [ 83.655157, 28.193657 ], [ 83.65496, 28.193424 ], [ 83.654325, 28.192688 ], [ 83.654186, 28.192511 ], [ 83.654073, 28.192326 ], [ 83.653974, 28.192111 ], [ 83.653915, 28.191921 ], [ 83.653888, 28.191792 ], [ 83.653858, 28.191604 ] ], [ [ 83.653854, 28.191559 ], [ 83.65381, 28.190842 ], [ 83.653741, 28.190383 ], [ 83.653655, 28.190088 ], [ 83.653566, 28.189801 ], [ 83.653494, 28.189619 ], [ 83.653379, 28.189421 ], [ 83.653228, 28.189248 ], [ 83.65307, 28.189118 ], [ 83.652923, 28.189031 ], [ 83.652737, 28.188915 ], [ 83.652595, 28.188787 ], [ 83.652493, 28.188657 ], [ 83.652386, 28.188475 ], [ 83.652316, 28.188326 ], [ 83.652233, 28.188111 ], [ 83.652096, 28.187722 ], [ 83.652087, 28.187708 ], [ 83.651876, 28.187381 ], [ 83.651646, 28.187066 ], [ 83.65145, 28.186838 ], [ 83.651249, 28.186648 ], [ 83.65105, 28.186501 ], [ 83.650829, 28.186388 ], [ 83.650683, 28.186357 ], [ 83.650503, 28.186357 ], [ 83.650254, 28.186371 ], [ 83.650128, 28.186411 ], [ 83.649894, 28.186527 ], [ 83.64968, 28.18666 ], [ 83.649361, 28.186801 ], [ 83.649111, 28.186891 ], [ 83.648985, 28.18692 ], [ 83.648782, 28.186934 ], [ 83.648623, 28.186932 ], [ 83.64847, 28.186903 ], [ 83.648296, 28.18683 ], [ 83.648131, 28.186723 ], [ 83.647926, 28.186525 ], [ 83.647778, 28.186352 ], [ 83.647684, 28.186175 ], [ 83.647633, 28.18601 ], [ 83.647585, 28.185797 ], [ 83.647285, 28.184438 ], [ 83.647197, 28.184063 ] ] ] } },
{ "type": "Feature", "properties": { "full_id": "w347868767", "osm_id": "347868767", "osm_type": "way", "waterway": "stream", "seasonal": null, "admin_leve": null, "tunnel": null, "layer": null, "name_ne": null, "intermitte": null, "name_hi": null, "name_en": null, "int_name": null, "source_geo": null, "name": null }, "geometry": { "type": "MultiLineString", "coordinates": [ [ [ 83.586956, 28.307644 ], [ 83.586955, 28.307638 ], [ 83.58694, 28.307478 ], [ 83.587063, 28.307332 ], [ 83.587286, 28.307186 ] ], [ [ 83.589106, 28.304689 ], [ 83.589102, 28.304665 ], [ 83.589158, 28.304491 ], [ 83.589293, 28.304427 ] ], [ [ 83.590763, 28.302499 ], [ 83.59078, 28.302475 ], [ 83.590817, 28.302447 ] ], [ [ 83.591418, 28.301644 ], [ 83.591425, 28.301506 ], [ 83.591684, 28.301313 ], [ 83.591917, 28.301248 ] ], [ [ 83.592962, 28.30081 ], [ 83.593106, 28.300742 ], [ 83.59349, 28.300677 ], [ 83.593782, 28.300623 ], [ 83.593793, 28.300627 ] ], [ [ 83.594908, 28.300697 ], [ 83.594994, 28.300679 ], [ 83.59528, 28.300647 ], [ 83.595555, 28.300587 ], [ 83.595776, 28.300524 ], [ 83.596011, 28.300493 ] ], [ [ 83.596495, 28.300301 ], [ 83.596516, 28.300289 ], [ 83.596598, 28.30026 ] ], [ [ 83.596635, 28.300245 ], [ 83.596845, 28.300118 ], [ 83.596979, 28.300001 ], [ 83.597252, 28.299807 ], [ 83.59738, 28.299745 ], [ 83.597563, 28.299632 ], [ 83.597731, 28.299552 ] ], [ [ 83.600537, 28.298099 ], [ 83.600782, 28.298023 ], [ 83.601003, 28.298061 ], [ 83.601053, 28.29815 ] ], [ [ 83.601481, 28.298402 ], [ 83.601492, 28.298406 ] ] ] } },
{ "type": "Feature", "properties": { "full_id": "w348057495", "osm_id": "348057495", "osm_type": "way", "waterway": "stream", "seasonal": null, "admin_leve": null, "tunnel": null, "layer": null, "name_ne": null, "intermitte": null, "name_hi": null, "name_en": null, "int_name": null, "source_geo": null, "name": null }, "geometry": { "type": "LineString", "coordinates": [ [ 83.547174, 28.289143 ], [ 83.547233, 28.289031 ], [ 83.547241, 28.288953 ], [ 83.547253, 28.288742 ], [ 83.547266, 28.288566 ], [ 83.547276, 28.28839 ], [ 83.547204, 28.288301 ], [ 83.547002, 28.288257 ], [ 83.546965, 28.288145 ], [ 83.546966, 28.287964 ], [ 83.547, 28.287766 ], [ 83.547057, 28.287561 ], [ 83.547007, 28.287385 ], [ 83.547008, 28.287212 ], [ 83.547061, 28.287047 ], [ 83.547105, 28.286918 ], [ 83.547116, 28.286732 ], [ 83.546911, 28.286626 ], [ 83.546635, 28.286526 ], [ 83.546432, 28.286398 ], [ 83.546224, 28.286268 ], [ 83.545998, 28.286183 ], [ 83.545821, 28.286122 ], [ 83.545703, 28.286073 ], [ 83.545562, 28.286045 ], [ 83.545412, 28.286005 ], [ 83.545187, 28.285943 ], [ 83.545045, 28.285896 ], [ 83.54489, 28.285806 ], [ 83.544717, 28.28567 ], [ 83.544546, 28.285543 ], [ 83.544413, 28.285412 ], [ 83.544335, 28.285361 ], [ 83.544213, 28.285258 ], [ 83.544131, 28.285178 ], [ 83.544077, 28.285111 ], [ 83.543983, 28.285107 ], [ 83.543893, 28.285087 ], [ 83.543701, 28.285087 ], [ 83.543597, 28.285092 ], [ 83.543453, 28.285048 ], [ 83.543217, 28.285044 ], [ 83.54304, 28.285029 ], [ 83.54292, 28.28505 ], [ 83.542789, 28.285056 ], [ 83.542578, 28.285043 ] ] } },
{ "type": "Feature", "properties": { "full_id": "w348209955", "osm_id": "348209955", "osm_type": "way", "waterway": "stream", "seasonal": null, "admin_leve": null, "tunnel": null, "layer": null, "name_ne": null, "intermitte": null, "name_hi": null, "name_en": null, "int_name": null, "source_geo": null, "name": null }, "geometry": { "type": "MultiLineString", "coordinates": [ [ [ 83.562327, 28.273946 ], [ 83.562325, 28.273863 ], [ 83.56236, 28.273785 ], [ 83.562451, 28.273708 ], [ 83.562624, 28.273591 ], [ 83.56278, 28.273511 ], [ 83.562976, 28.273413 ], [ 83.563091, 28.273312 ], [ 83.563329, 28.273152 ], [ 83.563473, 28.273061 ], [ 83.56359, 28.272958 ], [ 83.563705, 28.272839 ], [ 83.563775, 28.272733 ], [ 83.563854, 28.27264 ], [ 83.56394, 28.272554 ], [ 83.563957, 28.272311 ], [ 83.563954, 28.272076 ], [ 83.563969, 28.271921 ], [ 83.563951, 28.271714 ], [ 83.563793, 28.271331 ], [ 83.563787, 28.271225 ], [ 83.563728, 28.271098 ], [ 83.563649, 28.270977 ], [ 83.563605, 28.270861 ], [ 83.563646, 28.270695 ], [ 83.563596, 28.27054 ], [ 83.563396, 28.270343 ], [ 83.563308, 28.270227 ], [ 83.563214, 28.2701 ], [ 83.563185, 28.269974 ], [ 83.56315, 28.269868 ], [ 83.563097, 28.269749 ], [ 83.562959, 28.269363 ], [ 83.562923, 28.269206 ], [ 83.562938, 28.269092 ], [ 83.562927, 28.26897 ], [ 83.562879, 28.268781 ], [ 83.562786, 28.268595 ], [ 83.562689, 28.268453 ], [ 83.562609, 28.268344 ], [ 83.562609, 28.26831 ] ], [ [ 83.562615, 28.268205 ], [ 83.562642, 28.26814 ], [ 83.562765, 28.267956 ], [ 83.562656, 28.267629 ], [ 83.562563, 28.267462 ], [ 83.562724, 28.267328 ], [ 83.562744, 28.266909 ], [ 83.562664, 28.26682 ], [ 83.562449, 28.266724 ] ], [ [ 83.562303, 28.266307 ], [ 83.562458, 28.266067 ], [ 83.562623, 28.265843 ], [ 83.562627, 28.265669 ], [ 83.562597, 28.265526 ], [ 83.562607, 28.265189 ], [ 83.5627, 28.264846 ], [ 83.56268, 28.264525 ], [ 83.562494, 28.264242 ], [ 83.562438, 28.264004 ], [ 83.562373, 28.263726 ], [ 83.562372, 28.263674 ], [ 83.561906, 28.263393 ], [ 83.561672, 28.263162 ], [ 83.561499, 28.263099 ], [ 83.561184, 28.262999 ], [ 83.561057, 28.262878 ] ] ] } },
{ "type": "Feature", "properties": { "full_id": "w352890083", "osm_id": "352890083", "osm_type": "way", "waterway": "river", "seasonal": null, "admin_leve": null, "tunnel": null, "layer": null, "name_ne": null, "intermitte": null, "name_hi": null, "name_en": null, "int_name": null, "source_geo": null, "name": null }, "geometry": { "type": "MultiLineString", "coordinates": [ [ [ 83.5511, 28.199451 ], [ 83.551402, 28.199753 ], [ 83.552022, 28.199934 ], [ 83.552437, 28.200172 ], [ 83.55289, 28.200246 ], [ 83.553711, 28.20025 ], [ 83.554092, 28.200534 ], [ 83.554352, 28.200515 ], [ 83.554721, 28.200605 ], [ 83.555124, 28.200898 ] ], [ [ 83.555355, 28.201121 ], [ 83.555742, 28.201701 ], [ 83.556143, 28.201775 ], [ 83.556453, 28.201925 ], [ 83.557007, 28.202378 ], [ 83.557521, 28.202389 ] ], [ [ 83.558996, 28.202824 ], [ 83.559088, 28.202919 ], [ 83.55978, 28.203127 ], [ 83.561148, 28.203136 ], [ 83.561316, 28.203082 ] ], [ [ 83.568469, 28.203988 ], [ 83.568599, 28.203961 ], [ 83.568646, 28.203839 ] ], [ [ 83.570952, 28.203588 ], [ 83.571145, 28.203701 ], [ 83.57281, 28.204148 ], [ 83.573368, 28.204307 ], [ 83.573607, 28.204226 ] ], [ [ 83.573971, 28.204324 ], [ 83.574469, 28.204628 ], [ 83.575597, 28.20476 ], [ 83.575973, 28.204992 ], [ 83.576399, 28.204888 ] ], [ [ 83.577504, 28.20516 ], [ 83.577622, 28.205193 ], [ 83.57773, 28.205198 ] ], [ [ 83.580389, 28.205666 ], [ 83.580433, 28.205732 ], [ 83.581004, 28.205741 ], [ 83.581222, 28.205697 ], [ 83.582021, 28.205675 ], [ 83.582944, 28.205891 ], [ 83.583639, 28.205661 ] ], [ [ 83.584106, 28.205778 ], [ 83.584761, 28.206067 ], [ 83.584779, 28.206041 ], [ 83.58503, 28.205673 ], [ 83.585262, 28.205499 ] ] ] } },
{ "type": "Feature", "properties": { "full_id": "w356777432", "osm_id": "356777432", "osm_type": "way", "waterway": "stream", "seasonal": null, "admin_leve": null, "tunnel": null, "layer": null, "name_ne": null, "intermitte": null, "name_hi": null, "name_en": null, "int_name": null, "source_geo": null, "name": null }, "geometry": { "type": "LineString", "coordinates": [ [ 83.671103, 28.225339 ], [ 83.67103, 28.22525 ] ] } },
{ "type": "Feature", "properties": { "full_id": "w538065971", "osm_id": "538065971", "osm_type": "way", "waterway": "stream", "seasonal": null, "admin_leve": null, "tunnel": null, "layer": null, "name_ne": null, "intermitte": null, "name_hi": null, "name_en": null, "int_name": null, "source_geo": null, "name": null }, "geometry": { "type": "LineString", "coordinates": [ [ 83.538778, 28.28563 ], [ 83.538488, 28.28536 ], [ 83.538039, 28.28498 ], [ 83.537946, 28.284896 ], [ 83.538002, 28.284707 ], [ 83.538035, 28.284525 ], [ 83.537839, 28.284269 ], [ 83.537673, 28.283976 ], [ 83.537581, 28.283773 ], [ 83.537544, 28.283546 ], [ 83.537554, 28.283224 ] ] } },
{ "type": "Feature", "properties": { "full_id": "w945102045", "osm_id": "945102045", "osm_type": "way", "waterway": "stream", "seasonal": null, "admin_leve": null, "tunnel": null, "layer": null, "name_ne": null, "intermitte": null, "name_hi": null, "name_en": null, "int_name": null, "source_geo": null, "name": null }, "geometry": { "type": "LineString", "coordinates": [ [ 83.558989, 28.211976 ], [ 83.559288, 28.211552 ], [ 83.559538, 28.211069 ], [ 83.559864, 28.210701 ], [ 83.55989, 28.210655 ], [ 83.560048, 28.210364 ], [ 83.56026, 28.210046 ], [ 83.560232, 28.209728 ], [ 83.56055, 28.209447 ], [ 83.561386, 28.209067 ], [ 83.561853, 28.208805 ], [ 83.562086, 28.208486 ], [ 83.562398, 28.207981 ], [ 83.563035, 28.207551 ], [ 83.564068, 28.206921 ], [ 83.564642, 28.206447 ], [ 83.565215, 28.205511 ], [ 83.565215, 28.205268 ], [ 83.565158, 28.204937 ], [ 83.565335, 28.204482 ], [ 83.565431, 28.204285 ] ] } },
{ "type": "Feature", "properties": { "full_id": "w997326445", "osm_id": "997326445", "osm_type": "way", "waterway": "stream", "seasonal": null, "admin_leve": null, "tunnel": null, "layer": null, "name_ne": null, "intermitte": null, "name_hi": null, "name_en": null, "int_name": null, "source_geo": null, "name": null }, "geometry": { "type": "LineString", "coordinates": [ [ 83.592669, 28.211617 ], [ 83.591967, 28.210298 ], [ 83.591065, 28.209211 ] ] } },
{ "type": "Feature", "properties": { "full_id": "w997326469", "osm_id": "997326469", "osm_type": "way", "waterway": "stream", "seasonal": null, "admin_leve": null, "tunnel": null, "layer": null, "name_ne": null, "intermitte": null, "name_hi": null, "name_en": null, "int_name": null, "source_geo": null, "name": null }, "geometry": { "type": "LineString", "coordinates": [ [ 83.584279, 28.217695 ], [ 83.584609, 28.217189 ], [ 83.584947, 28.216907 ], [ 83.585295, 28.216457 ], [ 83.585524, 28.216063 ], [ 83.585536, 28.215702 ], [ 83.586001, 28.215348 ], [ 83.586191, 28.214979 ], [ 83.586726, 28.214868 ], [ 83.586814, 28.21477 ], [ 83.586844, 28.214233 ], [ 83.586951, 28.213905 ], [ 83.586536, 28.212506 ], [ 83.58613, 28.211475 ], [ 83.586114, 28.21101 ], [ 83.585409, 28.211173 ], [ 83.585079, 28.210043 ], [ 83.585084, 28.209374 ], [ 83.584816, 28.208743 ], [ 83.585014, 28.208121 ], [ 83.58492, 28.207708 ], [ 83.584344, 28.207616 ], [ 83.584244, 28.207122 ], [ 83.584293, 28.206755 ], [ 83.584907, 28.206287 ], [ 83.584761, 28.206067 ] ] } },
{ "type": "Feature", "properties": { "full_id": "w997346976", "osm_id": "997346976", "osm_type": "way", "waterway": "stream", "seasonal": null, "admin_leve": null, "tunnel": null, "layer": null, "name_ne": null, "intermitte": null, "name_hi": null, "name_en": null, "int_name": null, "source_geo": null, "name": null }, "geometry": { "type": "MultiLineString", "coordinates": [ [ [ 83.553751, 28.30984 ], [ 83.553922, 28.31011 ], [ 83.554212, 28.310436 ], [ 83.554426, 28.31069 ], [ 83.554582, 28.310969 ], [ 83.554641, 28.311328 ], [ 83.55462, 28.311654 ], [ 83.554577, 28.311918 ], [ 83.554587, 28.312282 ], [ 83.554598, 28.312551 ], [ 83.554695, 28.312797 ], [ 83.55499, 28.312981 ], [ 83.55551, 28.313151 ], [ 83.555902, 28.313349 ], [ 83.555902, 28.313604 ], [ 83.555789, 28.313817 ], [ 83.555945, 28.314006 ], [ 83.556143, 28.314237 ], [ 83.556186, 28.314577 ], [ 83.556352, 28.314889 ], [ 83.556433, 28.315248 ], [ 83.556487, 28.315497 ] ], [ [ 83.566505, 28.31554 ], [ 83.566766, 28.315396 ], [ 83.567461, 28.315176 ], [ 83.568137, 28.315096 ] ], [ [ 83.568717, 28.314815 ], [ 83.568752, 28.314669 ], [ 83.568983, 28.314512 ], [ 83.569397, 28.314519 ], [ 83.569414, 28.314517 ] ], [ [ 83.570409, 28.313545 ], [ 83.570482, 28.31342 ], [ 83.570654, 28.31333 ] ], [ [ 83.570732, 28.313289 ], [ 83.570788, 28.31326 ], [ 83.572311, 28.31308 ], [ 83.572705, 28.313179 ] ] ] } },
{ "type": "Feature", "properties": { "full_id": "w1032475672", "osm_id": "1032475672", "osm_type": "way", "waterway": "river", "seasonal": null, "admin_leve": null, "tunnel": null, "layer": null, "name_ne": null, "intermitte": null, "name_hi": null, "name_en": null, "int_name": null, "source_geo": null, "name": null }, "geometry": { "type": "LineString", "coordinates": [ [ 83.597664, 28.217228 ], [ 83.598216, 28.216921 ], [ 83.598651, 28.21667 ], [ 83.59908, 28.216321 ], [ 83.599251, 28.216051 ], [ 83.599573, 28.215763 ], [ 83.600008, 28.215574 ], [ 83.600265, 28.215314 ], [ 83.600689, 28.215078 ], [ 83.600992, 28.214963 ] ] } },
{ "type": "Feature", "properties": { "full_id": "w1178004696", "osm_id": "1178004696", "osm_type": "way", "waterway": "stream", "seasonal": null, "admin_leve": null, "tunnel": null, "layer": null, "name_ne": null, "intermitte": null, "name_hi": null, "name_en": null, "int_name": null, "source_geo": null, "name": null }, "geometry": { "type": "LineString", "coordinates": [ [ 83.594356, 28.220133 ], [ 83.594185, 28.219842 ], [ 83.593969, 28.219481 ], [ 83.59365, 28.219321 ], [ 83.593452, 28.219205 ], [ 83.593099, 28.218663 ], [ 83.592931, 28.21845 ], [ 83.592754, 28.218291 ], [ 83.59242, 28.217991 ], [ 83.592159, 28.217835 ], [ 83.591889, 28.217753 ], [ 83.591788, 28.217691 ], [ 83.591517, 28.217524 ], [ 83.591219, 28.217458 ], [ 83.590866, 28.217245 ], [ 83.5907, 28.217023 ], [ 83.590408, 28.216872 ], [ 83.590186, 28.216665 ], [ 83.589983, 28.21662 ], [ 83.589551, 28.216464 ], [ 83.589482, 28.216408 ], [ 83.589272, 28.216241 ], [ 83.588937, 28.216003 ], [ 83.587947, 28.215491 ], [ 83.587799, 28.215152 ], [ 83.587491, 28.214807 ], [ 83.587316, 28.214689 ], [ 83.586844, 28.214233 ] ] } },
{ "type": "Feature", "properties": { "full_id": "w1178004697", "osm_id": "1178004697", "osm_type": "way", "waterway": "stream", "seasonal": null, "admin_leve": null, "tunnel": null, "layer": null, "name_ne": null, "intermitte": null, "name_hi": null, "name_en": null, "int_name": null, "source_geo": null, "name": null }, "geometry": { "type": "LineString", "coordinates": [ [ 83.594931, 28.218389 ], [ 83.594239, 28.218342 ], [ 83.593592, 28.21847 ], [ 83.593157, 28.218377 ], [ 83.592754, 28.218291 ] ] } },
{ "type": "Feature", "properties": { "full_id": "w1178004698", "osm_id": "1178004698", "osm_type": "way", "waterway": "stream", "seasonal": null, "admin_leve": null, "tunnel": null, "layer": null, "name_ne": null, "intermitte": null, "name_hi": null, "name_en": null, "int_name": null, "source_geo": null, "name": null }, "geometry": { "type": "LineString", "coordinates": [ [ 83.587842, 28.224449 ], [ 83.587875, 28.22421 ], [ 83.587914, 28.223955 ], [ 83.587914, 28.223792 ], [ 83.587934, 28.223484 ], [ 83.587928, 28.223205 ], [ 83.588013, 28.22295 ], [ 83.587888, 28.222613 ], [ 83.587631, 28.222183 ], [ 83.587571, 28.221776 ], [ 83.587578, 28.221311 ], [ 83.587598, 28.220713 ], [ 83.587486, 28.220405 ], [ 83.587552, 28.220219 ], [ 83.587604, 28.219974 ], [ 83.587505, 28.219667 ], [ 83.587314, 28.219161 ], [ 83.587097, 28.218975 ], [ 83.58709, 28.218621 ], [ 83.587004, 28.217702 ], [ 83.586912, 28.217534 ], [ 83.586951, 28.217302 ], [ 83.586938, 28.217005 ], [ 83.586727, 28.216779 ], [ 83.586496, 28.2165 ], [ 83.586391, 28.216453 ], [ 83.586635, 28.216343 ], [ 83.586642, 28.216081 ], [ 83.586608, 28.215936 ], [ 83.586899, 28.215779 ], [ 83.587176, 28.215157 ], [ 83.586814, 28.21477 ] ] } },
{ "type": "Feature", "properties": { "full_id": "w1178004699", "osm_id": "1178004699", "osm_type": "way", "waterway": "stream", "seasonal": null, "admin_leve": null, "tunnel": null, "layer": null, "name_ne": null, "intermitte": null, "name_hi": null, "name_en": null, "int_name": null, "source_geo": null, "name": null }, "geometry": { "type": "LineString", "coordinates": [ [ 83.590572, 28.219091 ], [ 83.590585, 28.218929 ], [ 83.590578, 28.218696 ], [ 83.59048, 28.218499 ], [ 83.590394, 28.21833 ], [ 83.590024, 28.218138 ], [ 83.589807, 28.218039 ], [ 83.589787, 28.217761 ], [ 83.589787, 28.217633 ], [ 83.589655, 28.217511 ], [ 83.589649, 28.217336 ], [ 83.589681, 28.217168 ], [ 83.589701, 28.216982 ], [ 83.589622, 28.216744 ], [ 83.589536, 28.21654 ], [ 83.589482, 28.216408 ] ] } }
]
}
