{
"type": "FeatureCollection",
"name": "Baglung_Schools",
"crs": { "type": "name", "properties": { "name": "urn:ogc:def:crs:OGC:1.3:CRS84" } },
"xy_coordinate_resolution": 1e-06,
"features": [
{ "type": "Feature", "properties": { "name": "Siddhartha Sikshya Sadan", "operator_t": null, "location": "Ramrekha" }, "geometry": { "type": "Point", "coordinates": [ 83.603171, 28.263235 ] } },
{ "type": "Feature", "properties": { "name": null, "operator_t": null, "location": "Kudule" }, "geometry": { "type": "Point", "coordinates": [ 83.591753, 28.291493 ] } },
{ "type": "Feature", "properties": { "name": "Sunrise Boarding Higher Secondary School", "operator_t": null, "location": "guthi" }, "geometry": { "type": "Point", "coordinates": [ 83.598547, 28.265264 ] } },
{ "type": "Feature", "properties": { "name": "Rudra Pipal Secondary School", "operator_t": null, "location": "rudrapipal" }, "geometry": { "type": "Point", "coordinates": [ 83.603312, 28.261631 ] } },
{ "type": "Feature", "properties": { "name": "Shree Chanda Chandranagar Primary School", "operator_t": null, "location": "Affere" }, "geometry": { "type": "Point", "coordinates": [ 83.549995, 28.204372 ] } },
{ "type": "Feature", "properties": { "name": "Shree Siddha Primary School", "operator_t": null, "location": "Ramtola" }, "geometry": { "type": "Point", "coordinates": [ 83.558634, 28.21005 ] } },
{ "type": "Feature", "properties": { "name": "Shree Sarswoti Primary School", "operator_t": null, "location": "Ramtola" }, "geometry": { "type": "Point", "coordinates": [ 83.563744, 28.212951 ] } },
{ "type": "Feature", "properties": { "name": "Shree Mahabidhyajan Secondary School", "operator_t": null, "location": "Ramtola" }, "geometry": { "type": "Point", "coordinates": [ 83.578456, 28.21706 ] } },
{ "type": "Feature", "properties": { "name": "Shree Sahid Ismirti Primary School", "operator_t": null, "location": "Ramtola" }, "geometry": { "type": "Point", "coordinates": [ 83.59217, 28.213683 ] } },
{ "type": "Feature", "properties": { "name": "Shree Janata Adharbhoot Bidhyalaye", "operator_t": null, "location": "Ramtola" }, "geometry": { "type": "Point", "coordinates": [ 83.597537, 28.211136 ] } },
{ "type": "Feature", "properties": { "name": "Shree Okhle Primary School", "operator_t": null, "location": "Okhle" }, "geometry": { "type": "Point", "coordinates": [ 83.597955, 28.207663 ] } },
{ "type": "Feature", "properties": { "name": "Shree Bhairav Isthan Primary School", "operator_t": null, "location": "Kamidanda" }, "geometry": { "type": "Point", "coordinates": [ 83.618412, 28.207539 ] } },
{ "type": "Feature", "properties": { "name": "Shree Bhairav Primary School", "operator_t": null, "location": "Amalachaur" }, "geometry": { "type": "Point", "coordinates": [ 83.625965, 28.209002 ] } },
{ "type": "Feature", "properties": { "name": "Shree Janta Primary School", "operator_t": null, "location": "paiyunpata" }, "geometry": { "type": "Point", "coordinates": [ 83.625988, 28.215386 ] } },
{ "type": "Feature", "properties": { "name": "Shree Janachetana Primary School", "operator_t": null, "location": "Dhakaltar" }, "geometry": { "type": "Point", "coordinates": [ 83.629554, 28.201703 ] } },
{ "type": "Feature", "properties": { "name": "Shree Prithvi Secondary School", "operator_t": null, "location": "Amalachaur" }, "geometry": { "type": "Point", "coordinates": [ 83.634879, 28.195821 ] } },
{ "type": "Feature", "properties": { "name": "Shree Jagannath Primary School", "operator_t": null, "location": "Amalachaur" }, "geometry": { "type": "Point", "coordinates": [ 83.639271, 28.197554 ] } },
{ "type": "Feature", "properties": { "name": "Shree Budhidatri Primary School", "operator_t": null, "location": "Amalachaur" }, "geometry": { "type": "Point", "coordinates": [ 83.63659, 28.202558 ] } },
{ "type": "Feature", "properties": { "name": "Shree Sarswoti Primary School", "operator_t": null, "location": "Amalachaur" }, "geometry": { "type": "Point", "coordinates": [ 83.639374, 28.204148 ] } },
{ "type": "Feature", "properties": { "name": "Shree Durga Basic School", "operator_t": null, "location": "laharebar" }, "geometry": { "type": "Point", "coordinates": [ 83.642632, 28.214489 ] } },
{ "type": "Feature", "properties": { "name": "Shree Sarswoti Primary School", "operator_t": null, "location": "Narayansthan" }, "geometry": { "type": "Point", "coordinates": [ 83.648359, 28.209146 ] } },
{ "type": "Feature", "properties": { "name": "Shree Laxmi Narayan Basic School", "operator_t": null, "location": null }, "geometry": { "type": "Point", "coordinates": [ 83.652045, 28.203273 ] } },
{ "type": "Feature", "properties": { "name": "Shree Jantadhan Secondary School", "operator_t": null, "location": "Narayansthan" }, "geometry": { "type": "Point", "coordinates": [ 83.662084, 28.210186 ] } },
{ "type": "Feature", "properties": { "name": "Shree Aadharbhoott Basic School", "operator_t": null, "location": "Narayansthan" }, "geometry": { "type": "Point", "coordinates": [ 83.663859, 28.221963 ] } },
{ "type": "Feature", "properties": { "name": "Shree Ganesh Secondary School", "operator_t": null, "location": "narayansthan" }, "geometry": { "type": "Point", "coordinates": [ 83.661133, 28.220728 ] } },
{ "type": "Feature", "properties": { "name": "Shree Laxmi Sanskrit Primary School", "operator_t": null, "location": "Paiyunpata" }, "geometry": { "type": "Point", "coordinates": [ 83.653457, 28.221289 ] } },
{ "type": "Feature", "properties": { "name": "Shree Tribhuvan Secondary School", "operator_t": null, "location": "Paiyunpata" }, "geometry": { "type": "Point", "coordinates": [ 83.649146, 28.221073 ] } },
{ "type": "Feature", "properties": { "name": "Shree Prajatantra Primary School", "operator_t": null, "location": "Paupata" }, "geometry": { "type": "Point", "coordinates": [ 83.646969, 28.221271 ] } },
{ "type": "Feature", "properties": { "name": "Shree Parampundeswori Primary School", "operator_t": null, "location": "Paiyunpata" }, "geometry": { "type": "Point", "coordinates": [ 83.650667, 28.228037 ] } },
{ "type": "Feature", "properties": { "name": "Shree Durga Bhawani Primary School", "operator_t": null, "location": null }, "geometry": { "type": "Point", "coordinates": [ 83.652695, 28.228864 ] } },
{ "type": "Feature", "properties": { "name": "Shree Janamat Secondary School", "operator_t": null, "location": "baskot" }, "geometry": { "type": "Point", "coordinates": [ 83.632514, 28.239551 ] } },
{ "type": "Feature", "properties": { "name": "Shree Balprava Primary School", "operator_t": null, "location": "ghadari" }, "geometry": { "type": "Point", "coordinates": [ 83.624705, 28.234012 ] } },
{ "type": "Feature", "properties": { "name": "Shree Sarswoti Primary School", "operator_t": null, "location": "Bhakunde" }, "geometry": { "type": "Point", "coordinates": [ 83.621762, 28.228003 ] } },
{ "type": "Feature", "properties": { "name": "Shree Galuwa Dhadkharka Primary School", "operator_t": null, "location": "bhakunde" }, "geometry": { "type": "Point", "coordinates": [ 83.619416, 28.245936 ] } },
{ "type": "Feature", "properties": { "name": "Shree Shivalaya Basic School", "operator_t": null, "location": "Bhakunde" }, "geometry": { "type": "Point", "coordinates": [ 83.610623, 28.240417 ] } },
{ "type": "Feature", "properties": { "name": "Shree Bhairav Secondary School", "operator_t": null, "location": "Bhakunde" }, "geometry": { "type": "Point", "coordinates": [ 83.602072, 28.239913 ] } },
{ "type": "Feature", "properties": { "name": "Shree Chautaredadha Secondary School", "operator_t": null, "location": "bhakunde" }, "geometry": { "type": "Point", "coordinates": [ 83.598879, 28.244881 ] } },
{ "type": "Feature", "properties": { "name": "Shree Baraha Primary School", "operator_t": null, "location": "Bhakunde" }, "geometry": { "type": "Point", "coordinates": [ 83.602866, 28.249593 ] } },
{ "type": "Feature", "properties": { "name": "Shree Badechaur Secondary School", "operator_t": null, "location": "sigana" }, "geometry": { "type": "Point", "coordinates": [ 83.545872, 28.251745 ] } },
{ "type": "Feature", "properties": { "name": "Shree Bhaindandha Primary School", "operator_t": null, "location": "sigana" }, "geometry": { "type": "Point", "coordinates": [ 83.556894, 28.255916 ] } },
{ "type": "Feature", "properties": { "name": "Shree Bhagawati Primary School", "operator_t": null, "location": "sigana" }, "geometry": { "type": "Point", "coordinates": [ 83.555093, 28.248574 ] } },
{ "type": "Feature", "properties": { "name": "Shree Sigana Secondary School", "operator_t": null, "location": "sigana" }, "geometry": { "type": "Point", "coordinates": [ 83.560878, 28.248598 ] } },
{ "type": "Feature", "properties": { "name": "Shree Sharswoti Community Primary School", "operator_t": null, "location": "simalpata" }, "geometry": { "type": "Point", "coordinates": [ 83.570028, 28.248434 ] } },
{ "type": "Feature", "properties": { "name": "Shree Indra Primary School", "operator_t": null, "location": "sisnera tityang" }, "geometry": { "type": "Point", "coordinates": [ 83.570946, 28.244571 ] } },
{ "type": "Feature", "properties": { "name": "Shree Janasewa Primary School", "operator_t": null, "location": "tityang Thuladhunga" }, "geometry": { "type": "Point", "coordinates": [ 83.572785, 28.25077 ] } },
{ "type": "Feature", "properties": { "name": "Shree Tityang Primary School", "operator_t": null, "location": "tityang" }, "geometry": { "type": "Point", "coordinates": [ 83.580274, 28.247932 ] } },
{ "type": "Feature", "properties": { "name": "Shree Krishna Primary School", "operator_t": null, "location": "Tityang" }, "geometry": { "type": "Point", "coordinates": [ 83.580301, 28.247722 ] } },
{ "type": "Feature", "properties": { "name": "Shree Tityang Secondary School", "operator_t": null, "location": "Tityang" }, "geometry": { "type": "Point", "coordinates": [ 83.585016, 28.25558 ] } },
{ "type": "Feature", "properties": { "name": "Shree Shivalaya Primary School", "operator_t": null, "location": "tityang" }, "geometry": { "type": "Point", "coordinates": [ 83.593101, 28.260278 ] } },
{ "type": "Feature", "properties": { "name": "Precious Academy", "operator_t": null, "location": "ramrekha" }, "geometry": { "type": "Point", "coordinates": [ 83.604455, 28.263669 ] } },
{ "type": "Feature", "properties": { "name": "Shree Ramrekha Basic School", "operator_t": null, "location": "ramrekha" }, "geometry": { "type": "Point", "coordinates": [ 83.606851, 28.264384 ] } },
{ "type": "Feature", "properties": { "name": "Shree Dhaulagiri Deaf Residential School", "operator_t": null, "location": "Ramrekha" }, "geometry": { "type": "Point", "coordinates": [ 83.607416, 28.263977 ] } },
{ "type": "Feature", "properties": { "name": "Children Life English Boarding School", "operator_t": null, "location": "Ramrekha" }, "geometry": { "type": "Point", "coordinates": [ 83.605271, 28.265952 ] } },
{ "type": "Feature", "properties": { "name": "Holy Child School", "operator_t": null, "location": "ramrekha" }, "geometry": { "type": "Point", "coordinates": [ 83.602158, 28.265814 ] } },
{ "type": "Feature", "properties": { "name": "Future Brighter Secondary Boarding School", "operator_t": null, "location": "Awaroad" }, "geometry": { "type": "Point", "coordinates": [ 83.601079, 28.267847 ] } },
{ "type": "Feature", "properties": { "name": "Shree Bal Mandir Basic School", "operator_t": null, "location": "balmandir road" }, "geometry": { "type": "Point", "coordinates": [ 83.59999, 28.269241 ] } },
{ "type": "Feature", "properties": { "name": "Dhaulagiri Multiple Campus", "operator_t": null, "location": "Campus Road" }, "geometry": { "type": "Point", "coordinates": [ 83.600255, 28.269577 ] } },
{ "type": "Feature", "properties": { "name": "Universal Sublime Academy", "operator_t": null, "location": "Jeep Park" }, "geometry": { "type": "Point", "coordinates": [ 83.598016, 28.26981 ] } },
{ "type": "Feature", "properties": { "name": "Dignity College", "operator_t": null, "location": "Shreenagar tol" }, "geometry": { "type": "Point", "coordinates": [ 83.597547, 28.271506 ] } },
{ "type": "Feature", "properties": { "name": "Dhawalagiri Birendra Secondary School", "operator_t": null, "location": "Ratmata" }, "geometry": { "type": "Point", "coordinates": [ 83.594558, 28.26877 ] } },
{ "type": "Feature", "properties": { "name": "Bidhya Mandir Secondary School", "operator_t": null, "location": "Radhakrishna Tole" }, "geometry": { "type": "Point", "coordinates": [ 83.596613, 28.268297 ] } },
{ "type": "Feature", "properties": { "name": "Samata School", "operator_t": null, "location": "purano Cinema Road" }, "geometry": { "type": "Point", "coordinates": [ 83.597303, 28.266785 ] } },
{ "type": "Feature", "properties": { "name": "Adarsha Bidhya Mandir", "operator_t": null, "location": "Srijana tole" }, "geometry": { "type": "Point", "coordinates": [ 83.59815, 28.26701 ] } },
{ "type": "Feature", "properties": { "name": "Kaligandaki Boarding Secondary School", "operator_t": null, "location": "guthi" }, "geometry": { "type": "Point", "coordinates": [ 83.597762, 28.266443 ] } },
{ "type": "Feature", "properties": { "name": "Shubhalabh Academy", "operator_t": null, "location": "guthi" }, "geometry": { "type": "Point", "coordinates": [ 83.598557, 28.266068 ] } },
{ "type": "Feature", "properties": { "name": "Shree Kalika Kanya Mandir Secondary School", "operator_t": null, "location": "Kampoo Tole" }, "geometry": { "type": "Point", "coordinates": [ 83.596338, 28.26555 ] } },
{ "type": "Feature", "properties": { "name": "Gurans Vidhya Sadan", "operator_t": null, "location": "Guthi" }, "geometry": { "type": "Point", "coordinates": [ 83.59709, 28.263813 ] } },
{ "type": "Feature", "properties": { "name": "Amar Adarsha Boarding Secondary School", "operator_t": null, "location": "Majhkot" }, "geometry": { "type": "Point", "coordinates": [ 83.60025, 28.264335 ] } },
{ "type": "Feature", "properties": { "name": "Shree Upallachaur Basic School", "operator_t": null, "location": "Upallachaur" }, "geometry": { "type": "Point", "coordinates": [ 83.598723, 28.274212 ] } },
{ "type": "Feature", "properties": { "name": "Dhaulagiri Baglung Bises Basic School", "operator_t": null, "location": "Upallachaur" }, "geometry": { "type": "Point", "coordinates": [ 83.60184, 28.275731 ] } },
{ "type": "Feature", "properties": { "name": "New Oasis Academy", "operator_t": null, "location": "Upallachaur" }, "geometry": { "type": "Point", "coordinates": [ 83.598242, 28.276551 ] } },
{ "type": "Feature", "properties": { "name": "Shree Deurali Basic School", "operator_t": null, "location": "Odarchaur" }, "geometry": { "type": "Point", "coordinates": [ 83.599537, 28.281047 ] } },
{ "type": "Feature", "properties": { "name": "Dhaulagiri Prabidhik Shikshya Pratisthan", "operator_t": null, "location": "Dwaregaunda" }, "geometry": { "type": "Point", "coordinates": [ 83.596702, 28.288145 ] } },
{ "type": "Feature", "properties": { "name": "Corona Academy", "operator_t": null, "location": "Kundule" }, "geometry": { "type": "Point", "coordinates": [ 83.594862, 28.291885 ] } },
{ "type": "Feature", "properties": { "name": "Shree Muktinath Bed Bidhya Aashram", "operator_t": null, "location": "Kudule" }, "geometry": { "type": "Point", "coordinates": [ 83.588091, 28.295078 ] } },
{ "type": "Feature", "properties": { "name": "Shree Krishna Basic School", "operator_t": null, "location": "Bandre" }, "geometry": { "type": "Point", "coordinates": [ 83.581077, 28.306475 ] } },
{ "type": "Feature", "properties": { "name": "Shree Malika Basic School", "operator_t": null, "location": "Panchase" }, "geometry": { "type": "Point", "coordinates": [ 83.56147, 28.308462 ] } },
{ "type": "Feature", "properties": { "name": "Future Brighter Public School", "operator_t": null, "location": "Malika" }, "geometry": { "type": "Point", "coordinates": [ 83.573656, 28.3016 ] } },
{ "type": "Feature", "properties": { "name": "Shree Malika Secondary School", "operator_t": null, "location": "Malika" }, "geometry": { "type": "Point", "coordinates": [ 83.576185, 28.302038 ] } },
{ "type": "Feature", "properties": { "name": "Shree Tribhuvan Secondary School", "operator_t": null, "location": null }, "geometry": { "type": "Point", "coordinates": [ 83.649211, 28.221031 ] } },
{ "type": "Feature", "properties": { "name": "Shree Prithvi Secondary School", "operator_t": null, "location": null }, "geometry": { "type": "Point", "coordinates": [ 83.634802, 28.195887 ] } },
{ "type": "Feature", "properties": { "name": "Shree Sarswoti Primary School", "operator_t": null, "location": null }, "geometry": { "type": "Point", "coordinates": [ 83.639417, 28.204188 ] } },
{ "type": "Feature", "properties": { "name": "Shree Laxmi Sanskrit Primary School", "operator_t": null, "location": null }, "geometry": { "type": "Point", "coordinates": [ 83.653539, 28.221226 ] } },
{ "type": "Feature", "properties": { "name": "Shree Janta Primary School", "operator_t": null, "location": null }, "geometry": { "type": "Point", "coordinates": [ 83.62606, 28.215417 ] } },
{ "type": "Feature", "properties": { "name": "Shree Janamat Secondary School", "operator_t": null, "location": null }, "geometry": { "type": "Point", "coordinates": [ 83.632519, 28.239612 ] } },
{ "type": "Feature", "properties": { "name": "Shree Janachetana Primary School", "operator_t": null, "location": null }, "geometry": { "type": "Point", "coordinates": [ 83.629479, 28.201766 ] } },
{ "type": "Feature", "properties": { "name": "Shree Bhairav Isthan Primary School", "operator_t": null, "location": null }, "geometry": { "type": "Point", "coordinates": [ 83.618428, 28.207611 ] } },
{ "type": "Feature", "properties": { "name": "Shree Bhairav Primary School", "operator_t": null, "location": null }, "geometry": { "type": "Point", "coordinates": [ 83.625987, 28.208939 ] } },
{ "type": "Feature", "properties": { "name": "Shree Ganesh Secondary School", "operator_t": null, "location": null }, "geometry": { "type": "Point", "coordinates": [ 83.661165, 28.220933 ] } },
{ "type": "Feature", "properties": { "name": "Shree Jantadhan Secondary School", "operator_t": null, "location": null }, "geometry": { "type": "Point", "coordinates": [ 83.662118, 28.210048 ] } },
{ "type": "Feature", "properties": { "name": "Shree Aadharbht Basic School", "operator_t": null, "location": null }, "geometry": { "type": "Point", "coordinates": [ 83.663762, 28.22183 ] } },
{ "type": "Feature", "properties": { "name": "Shree Sarswoti Primary School", "operator_t": null, "location": null }, "geometry": { "type": "Point", "coordinates": [ 83.648434, 28.208994 ] } },
{ "type": "Feature", "properties": { "name": "Shree Durga Basic School", "operator_t": null, "location": null }, "geometry": { "type": "Point", "coordinates": [ 83.642723, 28.214464 ] } },
{ "type": "Feature", "properties": { "name": "Shree Parampundeswori Primary School", "operator_t": null, "location": null }, "geometry": { "type": "Point", "coordinates": [ 83.650657, 28.227997 ] } },
{ "type": "Feature", "properties": { "name": "Shree Balprava Primary School", "operator_t": null, "location": null }, "geometry": { "type": "Point", "coordinates": [ 83.624755, 28.234042 ] } },
{ "type": "Feature", "properties": { "name": "Shree Durga Bhawani Primary School", "operator_t": null, "location": null }, "geometry": { "type": "Point", "coordinates": [ 83.652765, 28.228815 ] } },
{ "type": "Feature", "properties": { "name": "Shree Prajatantra Primary School", "operator_t": null, "location": null }, "geometry": { "type": "Point", "coordinates": [ 83.647001, 28.221263 ] } },
{ "type": "Feature", "properties": { "name": "Shree Budhidatri Primary School", "operator_t": null, "location": null }, "geometry": { "type": "Point", "coordinates": [ 83.636611, 28.202567 ] } },
{ "type": "Feature", "properties": { "name": "Shree Sarswoti Primary School", "operator_t": null, "location": null }, "geometry": { "type": "Point", "coordinates": [ 83.56379, 28.212806 ] } },
{ "type": "Feature", "properties": { "name": "Shree Sigana Secondary School", "operator_t": null, "location": null }, "geometry": { "type": "Point", "coordinates": [ 83.560884, 28.248552 ] } },
{ "type": "Feature", "properties": { "name": "Shree Siddha Primary School", "operator_t": null, "location": null }, "geometry": { "type": "Point", "coordinates": [ 83.558706, 28.209994 ] } },
{ "type": "Feature", "properties": { "name": "Shree Shivalaya Primary School", "operator_t": null, "location": null }, "geometry": { "type": "Point", "coordinates": [ 83.593108, 28.260202 ] } },
{ "type": "Feature", "properties": { "name": "Shree Okhle Primary School", "operator_t": null, "location": null }, "geometry": { "type": "Point", "coordinates": [ 83.597736, 28.207721 ] } },
{ "type": "Feature", "properties": { "name": "Shree Sharswoti Community Primary School", "operator_t": null, "location": null }, "geometry": { "type": "Point", "coordinates": [ 83.570069, 28.248553 ] } },
{ "type": "Feature", "properties": { "name": "Shree Janta Basic School", "operator_t": null, "location": null }, "geometry": { "type": "Point", "coordinates": [ 83.59749, 28.211187 ] } },
{ "type": "Feature", "properties": { "name": "Shree Indra Primary School", "operator_t": null, "location": null }, "geometry": { "type": "Point", "coordinates": [ 83.571011, 28.244576 ] } },
{ "type": "Feature", "properties": { "name": "Shree Janasewa Primary School", "operator_t": null, "location": null }, "geometry": { "type": "Point", "coordinates": [ 83.572855, 28.250856 ] } },
{ "type": "Feature", "properties": { "name": "Shree Chanda Chandranagar Primary School", "operator_t": null, "location": null }, "geometry": { "type": "Point", "coordinates": [ 83.550128, 28.204291 ] } },
{ "type": "Feature", "properties": { "name": "Shree Tityang Primary School", "operator_t": null, "location": null }, "geometry": { "type": "Point", "coordinates": [ 83.580252, 28.247849 ] } },
{ "type": "Feature", "properties": { "name": "Shree Sarswoti Primary School", "operator_t": null, "location": null }, "geometry": { "type": "Point", "coordinates": [ 83.621685, 28.22802 ] } },
{ "type": "Feature", "properties": { "name": "Shree Shivalaya Basic School", "operator_t": null, "location": null }, "geometry": { "type": "Point", "coordinates": [ 83.610727, 28.240456 ] } },
{ "type": "Feature", "properties": { "name": "Shree Mahabidhyajan Secondary School", "operator_t": null, "location": null }, "geometry": { "type": "Point", "coordinates": [ 83.578553, 28.217182 ] } },
{ "type": "Feature", "properties": { "name": "Shree Krishna Primary School", "operator_t": null, "location": null }, "geometry": { "type": "Point", "coordinates": [ 83.580263, 28.247781 ] } },
{ "type": "Feature", "properties": { "name": "Shree Tityang Secondary School", "operator_t": null, "location": null }, "geometry": { "type": "Point", "coordinates": [ 83.584939, 28.255599 ] } },
{ "type": "Feature", "properties": { "name": "Shree Baraha Primary School", "operator_t": null, "location": null }, "geometry": { "type": "Point", "coordinates": [ 83.602919, 28.249576 ] } },
{ "type": "Feature", "properties": { "name": "Shree Galuwa Dhadkharka Primary School", "operator_t": null, "location": null }, "geometry": { "type": "Point", "coordinates": [ 83.619359, 28.246013 ] } },
{ "type": "Feature", "properties": { "name": "Shree Chautaredadha Secondary School", "operator_t": null, "location": null }, "geometry": { "type": "Point", "coordinates": [ 83.599015, 28.2449 ] } },
{ "type": "Feature", "properties": { "name": "Shree Bhairav Secondary School", "operator_t": null, "location": null }, "geometry": { "type": "Point", "coordinates": [ 83.602025, 28.239848 ] } },
{ "type": "Feature", "properties": { "name": "Shree Badechaur Secondary School", "operator_t": null, "location": null }, "geometry": { "type": "Point", "coordinates": [ 83.545823, 28.251905 ] } },
{ "type": "Feature", "properties": { "name": "Shree Sigana Secondary School", "operator_t": null, "location": null }, "geometry": { "type": "Point", "coordinates": [ 83.560833, 28.248587 ] } },
{ "type": "Feature", "properties": { "name": "Shree Bhagawati Primary School", "operator_t": null, "location": null }, "geometry": { "type": "Point", "coordinates": [ 83.554991, 28.248546 ] } },
{ "type": "Feature", "properties": { "name": "Shree Bhaindandha Primary School", "operator_t": null, "location": null }, "geometry": { "type": "Point", "coordinates": [ 83.55697, 28.255952 ] } },
{ "type": "Feature", "properties": { "name": "Shree Mulpani Secondary School", "operator_t": null, "location": null }, "geometry": { "type": "Point", "coordinates": [ 83.574536, 28.270366 ] } },
{ "type": "Feature", "properties": { "name": "Shree Harachaur Children Development Center", "operator_t": null, "location": null }, "geometry": { "type": "Point", "coordinates": [ 83.570598, 28.274611 ] } },
{ "type": "Feature", "properties": { "name": "Shree Jyotikunja Primary School", "operator_t": null, "location": null }, "geometry": { "type": "Point", "coordinates": [ 83.571547, 28.276829 ] } },
{ "type": "Feature", "properties": { "name": "Shree Shraswoti Primary School", "operator_t": null, "location": null }, "geometry": { "type": "Point", "coordinates": [ 83.56526, 28.282174 ] } },
{ "type": "Feature", "properties": { "name": "Shree Janachetana Primary School", "operator_t": null, "location": null }, "geometry": { "type": "Point", "coordinates": [ 83.552463, 28.276272 ] } },
{ "type": "Feature", "properties": { "name": "Shree Titaure Secondary School", "operator_t": null, "location": null }, "geometry": { "type": "Point", "coordinates": [ 83.546855, 28.283052 ] } },
{ "type": "Feature", "properties": { "name": "Shree Gaurishankar Primary School", "operator_t": null, "location": null }, "geometry": { "type": "Point", "coordinates": [ 83.559143, 28.288379 ] } },
{ "type": "Feature", "properties": { "name": "Shree Bishwokarma Secondary School", "operator_t": null, "location": null }, "geometry": { "type": "Point", "coordinates": [ 83.571122, 28.28429 ] } },
{ "type": "Feature", "properties": { "name": "Shree Bhagawati Primary School", "operator_t": null, "location": null }, "geometry": { "type": "Point", "coordinates": [ 83.58052, 28.28184 ] } },
{ "type": "Feature", "properties": { "name": "Shree Amar Primary School", "operator_t": null, "location": null }, "geometry": { "type": "Point", "coordinates": [ 83.588274, 28.288689 ] } },
{ "type": "Feature", "properties": { "name": "Aadharbht Primary School", "operator_t": null, "location": null }, "geometry": { "type": "Point", "coordinates": [ 83.585308, 28.278348 ] } },
{ "type": "Feature", "properties": { "name": "Shree Laharepipal Secondary School", "operator_t": null, "location": null }, "geometry": { "type": "Point", "coordinates": [ 83.586122, 28.284966 ] } },
{ "type": "Feature", "properties": { "name": "Shree Sadhashiva Primary School", "operator_t": null, "location": null }, "geometry": { "type": "Point", "coordinates": [ 83.574587, 28.295004 ] } },
{ "type": "Feature", "properties": { "name": "Shree Deurali Basic School", "operator_t": null, "location": null }, "geometry": { "type": "Point", "coordinates": [ 83.599485, 28.281287 ] } },
{ "type": "Feature", "properties": { "name": "Dhaulagiri Baglung Bises Basic School", "operator_t": null, "location": null }, "geometry": { "type": "Point", "coordinates": [ 83.601874, 28.275744 ] } },
{ "type": "Feature", "properties": { "name": "Shree Upallachaur Basic School", "operator_t": null, "location": null }, "geometry": { "type": "Point", "coordinates": [ 83.598658, 28.274196 ] } },
{ "type": "Feature", "properties": { "name": "Dignity College", "operator_t": null, "location": null }, "geometry": { "type": "Point", "coordinates": [ 83.597497, 28.271483 ] } },
{ "type": "Feature", "properties": { "name": "Shree Krishna Basic School", "operator_t": null, "location": null }, "geometry": { "type": "Point", "coordinates": [ 83.581243, 28.306463 ] } },
{ "type": "Feature", "properties": { "name": "Shree Malika Basic School", "operator_t": null, "location": null }, "geometry": { "type": "Point", "coordinates": [ 83.561502, 28.30856 ] } },
{ "type": "Feature", "properties": { "name": "Shree Malika Secondary School", "operator_t": null, "location": null }, "geometry": { "type": "Point", "coordinates": [ 83.576183, 28.302008 ] } },
{ "type": "Feature", "properties": { "name": "Future Brighter Public School", "operator_t": null, "location": null }, "geometry": { "type": "Point", "coordinates": [ 83.573723, 28.3015 ] } },
{ "type": "Feature", "properties": { "name": "Shree Basundhara Primary School", "operator_t": null, "location": null }, "geometry": { "type": "Point", "coordinates": [ 83.562766, 28.265943 ] } },
{ "type": "Feature", "properties": { "name": "New Oasis Academy", "operator_t": null, "location": null }, "geometry": { "type": "Point", "coordinates": [ 83.598296, 28.276659 ] } },
{ "type": "Feature", "properties": { "name": "Shree Multinath Bed Bidhya Aashram", "operator_t": null, "location": null }, "geometry": { "type": "Point", "coordinates": [ 83.588127, 28.295018 ] } },
{ "type": "Feature", "properties": { "name": "Shree Kudule Secondary School", "operator_t": null, "location": null }, "geometry": { "type": "Point", "coordinates": [ 83.592016, 28.291566 ] } },
{ "type": "Feature", "properties": { "name": "Corona Academy", "operator_t": null, "location": null }, "geometry": { "type": "Point", "coordinates": [ 83.594865, 28.291849 ] } },
{ "type": "Feature", "properties": { "name": "Dhaulagiri Prabidhik Shikshya Pratisthan", "operator_t": null, "location": null }, "geometry": { "type": "Point", "coordinates": [ 83.596802, 28.288194 ] } },
{ "type": "Feature", "properties": { "name": "Dhaulagiri English Boarding School", "operator_t": null, "location": null }, "geometry": { "type": "Point", "coordinates": [ 83.599617, 28.277315 ] } },
{ "type": "Feature", "properties": { "name": "Dhawalagiri Birendra Secondary School", "operator_t": null, "location": null }, "geometry": { "type": "Point", "coordinates": [ 83.594471, 28.268718 ] } },
{ "type": "Feature", "properties": { "name": "Dhaulagiri Multiple Campus", "operator_t": null, "location": null }, "geometry": { "type": "Point", "coordinates": [ 83.600313, 28.270045 ] } },
{ "type": "Feature", "properties": { "name": "Future Brighter Secondary Boarding School", "operator_t": null, "location": null }, "geometry": { "type": "Point", "coordinates": [ 83.601013, 28.267832 ] } },
{ "type": "Feature", "properties": { "name": "bidhya mandir secondary school +2 block", "operator_t": "government", "location": null }, "geometry": { "type": "Point", "coordinates": [ 83.596647, 28.268011 ] } }
]
}
