{
"type": "FeatureCollection",
"name": "Baglung_Ward_Offices",
"crs": { "type": "name", "properties": { "name": "urn:ogc:def:crs:OGC:1.3:CRS84" } },
"xy_coordinate_resolution": 1e-06,
"features": [
{ "type": "Feature", "properties": { "name": "Baglung Municipality Office (Main)", "ward_no": "Main" }, "geometry": { "type": "Point", "coordinates": [ 83.60116, 28.265362 ] } },
{ "type": "Feature", "properties": { "name": "Ward 1 Office", "ward_no": "1" }, "geometry": { "type": "Point", "coordinates": [ 83.606878, 28.264827 ] } },
{ "type": "Feature", "properties": { "name": "Ward 4 Office", "ward_no": "4" }, "geometry": { "type": "Point", "coordinates": [ 83.600162, 28.276501 ] } },
{ "type": "Feature", "properties": { "name": "Ward 5 Office", "ward_no": "5" }, "geometry": { "type": "Point", "coordinates": [ 83.57245, 28.303957 ] } },
{ "type": "Feature", "properties": { "name": "Ward 6 Office", "ward_no": "6" }, "geometry": { "type": "Point", "coordinates": [ 83.587088, 28.281726 ] } },
{ "type": "Feature", "properties": { "name": "Ward 7 Office", "ward_no": "7" }, "geometry": { "type": "Point", "coordinates": [ 83.574326, 28.281447 ] } },
{ "type": "Feature", "properties": { "name": "Ward 8 Office", "ward_no": "8" }, "geometry": { "type": "Point", "coordinates": [ 83.556794, 28.254025 ] } },
{ "type": "Feature", "properties": { "name": "Ward 12 Office", "ward_no": "12" }, "geometry": { "type": "Point", "coordinates": [ 83.633801, 28.195524 ] } },
{ "type": "Feature", "properties": { "name": "Ward 13 Office", "ward_no": "13" }, "geometry": { "type": "Point", "coordinates": [ 83.648815, 28.221094 ] } }
]
}
